id,title,longitude,latitude,distancia,name_bicipark,address_bicipark
11772877,Asamblea Cristiana Gilgal,-3.638521057740299,40.38724931072868,5608.534892084335,Bicipark Montalban,"Calle de Montalbán, 5"
11025958,Asambleas de Evangelización Mundial para Cristo (AEMC),-3.745073767335671,40.372800292475574,3488.018773254909,Bicipark Aviación,Parking Aviación Española
11026848,Asociación Evangélica Internacional,-3.6706745177055007,40.457895405861926,1757.87529961661,Bicipark Recuerdo,"Calle Hiedra, 26"
3387,Catedral Anglicana de Madrid,-3.6986664775671785,40.42635538209311,429.71946468270704,Bicipark Villa de Paris,"Calle de Orellana, 23, 21"
3388,Catedral Ortodoxa Griega. Santa Iglesia Catedral de los Santos Andrés y Demetrio,-3.672894912820636,40.45755529500435,1727.836604023688,Bicipark Recuerdo,"Calle Hiedra, 26"
11030102,Centro Apostólico Cristo Viene,-3.6960683266163925,40.383724492823504,3848.4600826715873,Bicipark Montalban,"Calle de Montalbán, 5"
7063869,Centro Cristiano Ciudad de Refugio,-3.6876586251390493,40.34192622597721,8467.75748473449,Bicipark Montalban,"Calle de Montalbán, 5"
11745480,Centro Cristiano Cuatro Caminos,-3.700994547334428,40.456100287456294,695.0222222775948,Bicipark Orense,"Avenida General Perón, 27"
11772518,Centro Cristiano Evangélico,-3.6154573903495684,40.40685383679603,6002.310706848505,Bicipark Salamanca,Pl. del Marqués de Salamanca
11777752,Centro Cristiano Evangélico Independiente,-3.747166775976031,40.368892245184576,3500.1728171667096,Bicipark Aviación,Parking Aviación Española
11028407,Centro Cristiano Internacional Barcelona,-3.7668506940875517,40.380332955379934,1472.7463042754482,Bicipark Aviación,Parking Aviación Española
3751,Centro Cultural Islámico. Mezquita de Madrid,-3.6573554749897212,40.43852894692424,2063.647029186601,Bicipark Salamanca,Pl. del Marqués de Salamanca
7066102,Centro de Evangelización Anuncio de Paz,-3.665233691809319,40.39477355030102,3382.3655157806515,Bicipark Montalban,"Calle de Montalbán, 5"
11769868,Centro de Fe y Esperanza Internacional de España,-3.7316618578640703,40.38575649321376,4425.451721983455,Bicipark Aviación,Parking Aviación Española
7064897,Centro Evangélico de Restauración Aliento de Vida,-3.6268000188410188,40.37887387719392,6965.989896705549,Bicipark Montalban,"Calle de Montalbán, 5"
11745535,Christ Missions Evangelical Church,-3.681517625700249,40.35242427567422,7340.186504340256,Bicipark Montalban,"Calle de Montalbán, 5"
11771489,Christ The Master Filipino Christian Fellowship,-3.707887319176637,40.47751222856838,2504.4914453504443,Bicipark Pitis,"Calle Pau Arroyo del Fresno, 181"
11772695,Comunidad Cristiana Betania,-3.735961169071446,40.483378084085,1680.404093228185,Bicipark Pitis,"Calle Pau Arroyo del Fresno, 181"
11768989,Comunidad Cristiana Casa de Bendición,-3.610188031875868,40.444795655280224,6069.893445904233,Bicipark Salamanca,Pl. del Marqués de Salamanca
3740,Comunidad Cristiana Eben-Ezer de la Villa de Vallecas,-3.6181096496598038,40.37152812090639,8054.087440514506,Bicipark Montalban,"Calle de Montalbán, 5"
11772813,Comunidad Cristiana Eben-Ezer Dios es Amor,-3.6629623449024975,40.39623572695798,3390.7857316739346,Bicipark Montalban,"Calle de Montalbán, 5"
7063730,Comunidad Cristiana Eben-Ezer Hortaleza,-3.6436863685291523,40.47803083728167,1801.8026216951428,Bicipark Fuente de la Mora,Estación de Fuente de la Mora
11778302,Comunidad Cristiana Evangélica El Faro,-3.6675631832603,40.39240706108415,3472.0152155574165,Bicipark Montalban,"Calle de Montalbán, 5"
7065996,Comunidad Cristiana Maranatha,-3.6800894670027358,40.40503855717772,1715.4400749620088,Bicipark Montalban,"Calle de Montalbán, 5"
11745488,Comunidad Cristiana Misionera Newma España,-3.7138105528343224,40.338947832675025,7726.762418361229,Bicipark Aviación,Parking Aviación Española
7064568,Comunidad Cristiana Sendero de la Cruz,-3.631374057578604,40.43189156564133,4059.6432018815285,Bicipark Salamanca,Pl. del Marqués de Salamanca
11431093,Comunidad Eben-Ezer Dios Es Amor,-3.647037080630487,40.381966779984396,5471.148561653838,Bicipark Montalban,"Calle de Montalbán, 5"
7065908,Comunidad Evangélica de habla alemana de Madrid,-3.689422328230453,40.42721250117197,404.21913756040937,Bicipark Villa de Paris,"Calle de Orellana, 23, 21"
11025240,Comunidad Evangélica Internacional,-3.74651822287228,40.366381452000546,3684.834913579427,Bicipark Aviación,Parking Aviación Española
11773006,Fraternidad Cristiana Vida Nueva,-3.701559520848318,40.45954045233268,976.8733356715193,Bicipark Orense,"Avenida General Perón, 27"
7064565,Iglesia  Evangélica Bautista Pueblo Nuevo,-3.6441835021326243,40.433881823976215,2995.1877809727525,Bicipark Salamanca,Pl. del Marqués de Salamanca
11026241,Iglesia Abundante Vida,-3.744863153558721,40.36948386820239,3646.1550403034357,Bicipark Aviación,Parking Aviación Española
11745490,Iglesia Alianza Cristiana y Misionera,-3.6903411051943804,40.34938955813733,7634.947412417675,Bicipark Montalban,"Calle de Montalbán, 5"
3386,Iglesia Anglicana Sección Española de la Diócesis en Europa,-3.682755618134939,40.42670809944061,502.8837509403745,Bicipark Salamanca,Pl. del Marqués de Salamanca
7066142,Iglesia Asamblea Cristiana de Madrid,-3.6403338362133675,40.386045219549125,5572.204618725393,Bicipark Montalban,"Calle de Montalbán, 5"
11026250,Iglesia Asamblea de Dios Belén,-3.6441399002858303,40.42985610848436,2973.1100521900375,Bicipark Salamanca,Pl. del Marqués de Salamanca
11025964,Iglesia Bautista Calvario,-3.6488513828849785,40.45911690185054,2947.122648157681,Bicipark Recuerdo,"Calle Hiedra, 26"
11777516,Iglesia Bautista de Alameda de Osuna,-3.5799608501207385,40.46013668353802,7556.44404805275,Bicipark Fuente de la Mora,Estación de Fuente de la Mora
7064876,Iglesia Bautista de Jesús,-3.739235702341104,40.405049702498715,4335.416243535201,Bicipark Recoletos,"Paseo de Recoletos, 2"
11769014,"Iglesia Bautista de Jesús (José Villena, 10)",-3.655823971182136,40.431333124979844,1984.414767570636,Bicipark Salamanca,Pl. del Marqués de Salamanca
7064915,Iglesia Bautista de Vallecas,-3.6630343908266862,40.395652155665495,3433.3865333223503,Bicipark Montalban,"Calle de Montalbán, 5"
11771765,Iglesia Bíblica Reto a la Esperanza Camino de Hormigueras 137,-3.643042097371311,40.374809606409876,6291.796406018337,Bicipark Montalban,"Calle de Montalbán, 5"
11026113,Iglesia Bíblica,-3.580075615330767,40.47232582672411,7169.863720815957,Bicipark Fuente de la Mora,Estación de Fuente de la Mora
11771515,Iglesia Bíblica Reto a la Esperanza,-3.643042097371311,40.374809606409876,6291.796406018337,Bicipark Montalban,"Calle de Montalbán, 5"
11778140,Iglesia Bíblica Vida Nueva Madrid,-3.6673971793876783,40.48730378881032,468.37524978921607,Bicipark Fuente de la Mora,Estación de Fuente de la Mora
11732447,Iglesia Catedral del Redentor,-3.6986664775671785,40.42635538209311,429.71946468270704,Bicipark Villa de Paris,"Calle de Orellana, 23, 21"
7064593,Iglesia CENFOL España,-3.648807352035274,40.4651811895254,2480.3993094343346,Bicipark Fuente de la Mora,Estación de Fuente de la Mora
7064594,Iglesia Centro Cristiano Adonay,-3.691253820762234,40.35010688886286,7555.305001256006,Bicipark Montalban,"Calle de Montalbán, 5"
11025949,Iglesia Centro Cristinano Adonay,-3.713824312166029,40.33811971589477,7785.083545476155,Bicipark Aviación,Parking Aviación Española
11772907,Iglesia China Evangélica Misión Internacional,-3.6636066213529817,40.396267707201616,3350.346295268454,Bicipark Montalban,"Calle de Montalbán, 5"
11770206,Iglesia China Río de Esperanza,-3.7054387161429245,40.38450159065356,3937.5922497698502,Bicipark Montalban,"Calle de Montalbán, 5"
11772378,Iglesia Christ Embassy,-3.6461483186511154,40.374567244542426,6146.397229642786,Bicipark Montalban,"Calle de Montalbán, 5"
11777733,Iglesia Comunidad Cristiana de Fe,-3.744863153558721,40.36948386820239,3646.1550403034357,Bicipark Aviación,Parking Aviación Española
11777559,"Iglesia Comunidad Cristiana en España, CCL",-3.7471132818088884,40.368709165465525,3513.65458935763,Bicipark Aviación,Parking Aviación Española
11777745,Iglesia Coreana de Madrid Cheil,-3.746309510930643,40.36910408905974,3554.2147456451576,Bicipark Aviación,Parking Aviación Española
18298,Iglesia Cristiana Adventista del Séptimo Día. Madrid Alenza,-3.700489559324882,40.443575443757055,1183.9526030002442,Bicipark Orense,"Avenida General Perón, 27"
190017,Iglesia Cristiana Adventista del Séptimo Día. Madrid Aluche,-3.751562379802795,40.38947474678948,2808.1420777619655,Bicipark Aviación,Parking Aviación Española
8353139,Iglesia Cristiana Adventista del Séptimo Día. Madrid Eben-Ezer,-3.6100802530279967,40.424237049023766,5901.7900333067755,Bicipark Salamanca,Pl. del Marqués de Salamanca
190046,Iglesia Cristiana Adventista del Séptimo Día. Madrid Efes,-3.7220850553963856,40.390153190373084,4089.1714494860435,Bicipark Montalban,"Calle de Montalbán, 5"
11417679,Iglesia Cristiana Adventista del Séptimo Día. Madrid Emaus,-3.6100802530279967,40.424237049023766,5901.7900333067755,Bicipark Salamanca,Pl. del Marqués de Salamanca
6893233,Iglesia Cristiana Adventista del Séptimo Día. Madrid Habla Portuguesa,-3.738156333879843,40.3948228497844,4066.1546424254043,Bicipark Aviación,Parking Aviación Española
8352971,Iglesia Cristiana Adventista del Séptimo Día. Madrid Horeb,-3.738156333879843,40.3948228497844,4066.1546424254043,Bicipark Aviación,Parking Aviación Española
190054,Iglesia Cristiana Adventista del Séptimo Día. Madrid Resurrección,-3.6080217648238966,40.424745913913924,6069.318542286176,Bicipark Salamanca,Pl. del Marqués de Salamanca
190014,Iglesia Cristiana Adventista del Séptimo Día. Madrid Vallecas,-3.667388786715533,40.384743037956014,4207.475667763473,Bicipark Montalban,"Calle de Montalbán, 5"
190059,Iglesia Cristiana Adventista del Séptimo Día. Madrid Ventas,-3.649838033163314,40.43025079764197,2489.1572272667404,Bicipark Salamanca,Pl. del Marqués de Salamanca
11769743,Iglesia Cristiana Adventista Rusia 11,-3.6100802530279967,40.424237049023766,5901.7900333067755,Bicipark Salamanca,Pl. del Marqués de Salamanca
11777708,Iglesia Cristiana Adventista Secoya 19,-3.7449067888210887,40.3692641254172,3653.294087292494,Bicipark Aviación,Parking Aviación Española
11768941,Iglesia Cristiana Bautista Betel,-3.5657783371016496,40.44777785297718,9212.844061725888,Bicipark Fuente de la Mora,Estación de Fuente de la Mora
11771794,Iglesia Cristiana Bautista de Vallecas,-3.6217714951930553,40.37548350089073,7534.728636056494,Bicipark Montalban,"Calle de Montalbán, 5"
11745350,Iglesia Cristiana Casa de mi Padre,-3.734867022776862,40.39087260351759,4226.21995070316,Bicipark Aviación,Parking Aviación Española
11770106,Iglesia Cristiana China en España,-3.708765245871834,40.38487927104675,3996.9120880983,Bicipark Montalban,"Calle de Montalbán, 5"
7064802,Iglesia Cristiana Corazón de León,-3.703424906084702,40.41498820459974,1120.4188626936614,Bicipark Recoletos,"Paseo de Recoletos, 2"
7065462,Iglesia Cristiana Evangélica Casa de Oración,-3.6694435929153446,40.43146551176339,835.3283643767936,Bicipark Salamanca,Pl. del Marqués de Salamanca
23684,Iglesia Cristiana Evangélica de Aluche,-3.7515244313543996,40.38654839663729,2752.7050178106556,Bicipark Aviación,Parking Aviación Española
11026266,Iglesia Cristiana Evangelica de Chamartín,-3.671802881446396,40.45777867348771,1734.18575092502,Bicipark Recuerdo,"Calle Hiedra, 26"
7065093,Iglesia Cristiana Evangélica El Buen Pastor de Madrid,-3.660560405682932,40.398863439810455,3341.7275118873395,Bicipark Montalban,"Calle de Montalbán, 5"
11772717,Iglesia Cristiana Evangélica en Suanzes,-3.6247473743912937,40.44047986175515,4753.822468380483,Bicipark Salamanca,Pl. del Marqués de Salamanca
11777569,Iglesia Cristiana Evangélica Ministerio Misionero,-3.747406133925766,40.36613220090543,3635.039804479489,Bicipark Aviación,Parking Aviación Española
11771780,Iglesia Cristiana Evangélica Pentecostal Shekinah,-3.618810637876165,40.38013097479169,7426.651943482374,Bicipark Montalban,"Calle de Montalbán, 5"
11772738,Iglesia Cristiana Evangélica Buen Pastor,-3.6607166902116255,40.39872139426903,3341.714612851077,Bicipark Montalban,"Calle de Montalbán, 5"
11431586,Iglesia Cristiana Evangélica Casa del Alfarero,-3.642738285902067,40.43416644534178,3120.951512221389,Bicipark Salamanca,Pl. del Marqués de Salamanca
11772883,Iglesia Cristiana Evangélica Casa del Alfarero calle Monte Oliveti 34,-3.665001047668981,40.39707997332226,3203.513580552769,Bicipark Montalban,"Calle de Montalbán, 5"
11744838,Iglesia Cristiana Evangélica La Puerta Antonia Lacha 19,-3.7210711437076016,40.38577382922113,4419.4411788957,Bicipark Montalban,"Calle de Montalbán, 5"
11431592,Iglesia Cristiana Evangélica La Puerta Jose María Pereda 41,-3.6478799279685483,40.430482689220426,2655.3636470050405,Bicipark Salamanca,Pl. del Marqués de Salamanca
11772995,Iglesia Cristiana Filipina Cristo el Camino de Salvación,-3.700373838408467,40.462233128185645,1165.8313591100086,Bicipark Orense,"Avenida General Perón, 27"
7064620,Iglesia Cristiana Hosanna,-3.736823421959365,40.390022670284225,4045.4285505818702,Bicipark Aviación,Parking Aviación Española
11026233,Iglesia Cristiana Integral Casa sobre la Roca,-3.6556133054897137,40.456371724419725,2661.3932937337595,Bicipark Recuerdo,"Calle Hiedra, 26"
11772893,Iglesia Cristiana Paraíso de Adoración,-3.663441976265768,40.40095823989181,3004.945375478596,Bicipark Montalban,"Calle de Montalbán, 5"
11777645,Iglesia Cristiana Reconcíliate con Dios,-3.7476502733606907,40.365608004560805,3648.83714809702,Bicipark Aviación,Parking Aviación Española
11769773,Iglesia Cristiana Redimida de Dios,-3.771807908257487,40.397058274873146,1813.3327992672748,Bicipark Aviación,Parking Aviación Española
11777765,Iglesia Cristiana Roca Eterna,-3.6919234970185357,40.40396448534231,1577.7084826017606,Bicipark Montalban,"Calle de Montalbán, 5"
7065892,Iglesia Cristiana Santidad de Dios,-3.726361443652059,40.41181709187266,3046.7989573176965,Bicipark Recoletos,"Paseo de Recoletos, 2"
11778138,Iglesia Cristiana Shalom Adonai,-3.6673971793876783,40.48730378881032,468.37524978921607,Bicipark Fuente de la Mora,Estación de Fuente de la Mora
11768931,Iglesia Cristiana Verbo Butrón 20,-3.6085501605352426,40.42486808943805,6023.331720820894,Bicipark Salamanca,Pl. del Marqués de Salamanca
11777881,Iglesia Cruzada Cristiana Misión Vidaa,-3.6930580638077504,40.390225425864465,3106.36123565186,Bicipark Montalban,"Calle de Montalbán, 5"
11769970,Iglesia Cuerpo de Cristo,-3.7321057793446486,40.38674603374035,4395.454036815958,Bicipark Aviación,Parking Aviación Española
11772932,Iglesia Cuerpo de Cristo Ambrosio Vallejo 13,-3.706976226530615,40.45728970918039,1208.5590633051154,Bicipark Orense,"Avenida General Perón, 27"
7064883,"Iglesia Cuerpo de Cristo, Don Pedro",-3.7127590125142076,40.411650664950166,1991.3354579169425,Bicipark Recoletos,"Paseo de Recoletos, 2"
11431563,Iglesia Cuerpo de Cristo. Calle Avelino Fernández de la Poza,-3.6732010597964244,40.38467637366071,4005.148542708663,Bicipark Montalban,"Calle de Montalbán, 5"
7064917,Iglesia de Cristo - Madrid,-3.7010846337104173,40.451446329396504,632.8409918698143,Bicipark Orense,"Avenida General Perón, 27"
11772810,Iglesia de Dios de la Profecía,-3.6654538265600167,40.39858161508181,3056.685293236844,Bicipark Montalban,"Calle de Montalbán, 5"
11745337,Iglesia de Dios Harul,-3.733832375459816,40.39066340698624,4308.0890173430225,Bicipark Aviación,Parking Aviación Española
11745515,Iglesia de Dios Vida Nueva,-3.6866489909092395,40.34231907757052,8427.294856883389,Bicipark Montalban,"Calle de Montalbán, 5"
11771778,Iglesia de Dios (Verbo de Dios),-3.6285824907058113,40.3788846528378,6847.880053249202,Bicipark Montalban,"Calle de Montalbán, 5"
11771785,"Iglesia de Dios, Verbo de Dios",-3.6304491509873005,40.3795481034142,6678.898214726243,Bicipark Montalban,"Calle de Montalbán, 5"
10573493,Iglesia de Jesucristo de los Santos de los Últimos Días. Templo de Madrid,-3.6311541768043045,40.40094880979064,5219.465521541792,Bicipark Salamanca,Pl. del Marqués de Salamanca
11773030,Iglesia de Jesucristo Palabra Miel,-3.707199076844166,40.45581078313137,1171.5262442966448,Bicipark Orense,"Avenida General Perón, 27"
11771467,Iglesia de los Discípulos de Cristo,-3.679001107245413,40.43669014117753,708.0631340724019,Bicipark Salamanca,Pl. del Marqués de Salamanca
7065029,Iglesia de Los Elegidos de Dios,-3.7264778892367456,40.38119767358174,4865.320223330846,Bicipark Aviación,Parking Aviación Española
11745346,Iglesia de Santidad Pentecostal,-3.6502931839980235,40.42920679348206,2453.6317909095646,Bicipark Salamanca,Pl. del Marqués de Salamanca
11772557,Iglesia de Santidad Pentecostal Tomás Redondo 1,-3.6309383890620284,40.47301639392714,3016.774541498138,Bicipark Fuente de la Mora,Estación de Fuente de la Mora
147971,Iglesia de Scientology de España,-3.6977486316222152,40.41545025955645,662.4275067669035,Bicipark Montalban,"Calle de Montalbán, 5"
11773049,Iglesia de Una Esperanza,-3.689088695621236,40.373089513635435,5005.248103377922,Bicipark Montalban,"Calle de Montalbán, 5"
11770060,Iglesia del Evangelio Cuadrangular,-3.7424171547450222,40.38714515915696,3528.4030823340904,Bicipark Aviación,Parking Aviación Española
11431015,Iglesia del Rey Jesucristo,-3.733414326558791,40.4109568893467,3646.6798498594376,Bicipark Recoletos,"Paseo de Recoletos, 2"
11770209,Iglesia Dios es Amor Unión Cristiana Evangélica,-3.7000199485367538,40.38076277245949,4224.489556366811,Bicipark Montalban,"Calle de Montalbán, 5"
7063734,Iglesia Dios es Amor - Unión Cristiana,-3.644274105325617,40.43829788787747,3090.937797144887,Bicipark Salamanca,Pl. del Marqués de Salamanca
18306,Iglesia Ejército de Salvación Hermosilla,-3.6678489815151663,40.4254631855093,1101.5906404810498,Bicipark Salamanca,Pl. del Marqués de Salamanca
11026824,Iglesia Ejército de Salvación Palomeras,-3.6402017057531606,40.388453004338494,5413.910306699595,Bicipark Montalban,"Calle de Montalbán, 5"
11431675,Iglesia Elan,-3.61293716036795,40.410210854887914,6048.290780608951,Bicipark Salamanca,Pl. del Marqués de Salamanca
11770164,Iglesia Emanuel (U.C.E.),-3.712516240146969,40.380164013828775,4603.414374669453,Bicipark Montalban,"Calle de Montalbán, 5"
7065841,Iglesia Evangélica Alianza de Amor,-3.7178522152667624,40.3906699322105,3819.371944976485,Bicipark Montalban,"Calle de Montalbán, 5"
7065383,Iglesia Evangélica Asociación Evangelización Mundial para Cristo,-3.6105786335561914,40.426919386996715,5832.864616754292,Bicipark Salamanca,Pl. del Marqués de Salamanca
7063848,Iglesia Evangélica Bautista Barrio del Pilar,-3.7031462815424594,40.47854647762778,2164.023015376572,Bicipark Recuerdo,"Calle Hiedra, 26"
3385,Iglesia Evangélica Bautista El Buen Pastor,-3.6721867739655734,40.444250240065735,1657.0285971282765,Bicipark Salamanca,Pl. del Marqués de Salamanca
11772926,Iglesia Evangélica Bautista Madrid - Vallecas,-3.6631919963225954,40.39573062189441,3417.869915538689,Bicipark Montalban,"Calle de Montalbán, 5"
11770160,Iglesia Evangélica Bautista Madrid-Usera,-3.709839281335438,40.384490607528356,4072.1828205451916,Bicipark Montalban,"Calle de Montalbán, 5"
11768893,Iglesia Evangélica Bautista Villaverde,-3.689149100235942,40.3513909320076,7413.921659252609,Bicipark Montalban,"Calle de Montalbán, 5"
11769744,Iglesia Evangélica Bíblica Misionera,-3.6155234566793832,40.44727187781195,5719.101534643184,Bicipark Salamanca,Pl. del Marqués de Salamanca
7065547,Iglesia Evangélica Casa de Oración,-3.6630104948262883,40.37948258009744,4898.201943616967,Bicipark Montalban,"Calle de Montalbán, 5"
11772727,Iglesia Evangélica Celebración Cristiana San Sotero 5,-3.6228155135673554,40.437464332261335,4847.351242071644,Bicipark Salamanca,Pl. del Marqués de Salamanca
7065574,Iglesia Evangélica China Española,-3.704882718952069,40.4512456642724,951.431667055456,Bicipark Orense,"Avenida General Perón, 27"
11772699,Iglesia Evangélica Comunidad de Fe,-3.6866551216026346,40.467647940628325,843.1388439674256,Bicipark Recuerdo,"Calle Hiedra, 26"
11745332,Iglesia Evangélica Comunidad de la Paz,-3.733832375459816,40.39066340698624,4308.0890173430225,Bicipark Aviación,Parking Aviación Española
7063679,Iglesia Evangélica Cristo Vive,-3.6537495353492995,40.46660577055004,2157.372320959261,Bicipark Fuente de la Mora,Estación de Fuente de la Mora
11025954,Iglesia Evangélica de Habla Inglesa en Madrid,-3.7186194926544465,40.444012178441184,2321.347379043974,Bicipark Orense,"Avenida General Perón, 27"
11773020,Iglesia Evangélica de Hermanos Camino de Vida,-3.709651032535349,40.461586004949886,1643.2836635472536,Bicipark Orense,"Avenida General Perón, 27"
7065594,Iglesia Evangélica de Hermanos El Shaddai,-3.7093869921748412,40.453348645022764,1314.6267151282111,Bicipark Orense,"Avenida General Perón, 27"
11028295,Iglesia Evangélica de Hermanos en Aluche - Madrid,-3.7660307873771934,40.39189873720004,1766.6723993777237,Bicipark Aviación,Parking Aviación Española
11769877,Iglesia Evangélica de Hermanos en Carabanchel,-3.740167780086258,40.38977130974361,3761.135182859904,Bicipark Aviación,Parking Aviación Española
11431772,Iglesia Evangélica de Hermanos en Madrid calle Trafalgar,-3.701241599331296,40.43371124396547,801.2008769180055,Bicipark Almagro,"Calle Almagro, 11"
11431776,Iglesia Evangélica de Hermanos en Madrid. Calle Duque de Sesto,-3.6782871144773264,40.422519073596874,868.9325204260102,Bicipark Salamanca,Pl. del Marqués de Salamanca
11768913,Iglesia Evangélica de la Resurrección I.E.E. Butrón 20,-3.6085501605352426,40.42486808943805,6023.331720820894,Bicipark Salamanca,Pl. del Marqués de Salamanca
7065598,Iglesia Evangélica del Nazareno,-3.7282699674878703,40.38370140121481,4706.443248411753,Bicipark Aviación,Parking Aviación Española
11769005,Iglesia Evangélica El Hogar Cristiano,-3.600304793330195,40.42817382661681,6696.637391942476,Bicipark Salamanca,Pl. del Marqués de Salamanca
11028306,Iglesia Evangélica Emaús,-3.5666134456579752,40.4487149362724,9103.281685753775,Bicipark Fuente de la Mora,Estación de Fuente de la Mora
7063733,Iglesia Evangélica Encuentro con Dios,-3.6538664449213627,40.409918616524486,3121.2149211451065,Bicipark Salamanca,Pl. del Marqués de Salamanca
7065928,Iglesia Evangélica Española,-3.7120737849312566,40.40923676813966,2059.939781451286,Bicipark Montalban,"Calle de Montalbán, 5"
7065000,Iglesia Evangélica Española Noviciado 5,-3.708110408802556,40.425585219802336,1223.058971270306,Bicipark Villa de Paris,"Calle de Orellana, 23, 21"
11770241,Iglesia Evangélica Federación Asambleas de Dios de España,-3.634185577349754,40.439073872427564,3939.0579712526314,Bicipark Salamanca,Pl. del Marqués de Salamanca
11028330,"Iglesia Evangélica Fe, Esperanza y Amor",-3.628173673450934,40.43055108462239,4327.555796553884,Bicipark Salamanca,Pl. del Marqués de Salamanca
11773044,Iglesia Evangélica Filadelfia Albuñuelas 18,-3.6996276043947613,40.36598624149444,5840.377872041471,Bicipark Montalban,"Calle de Montalbán, 5"
11772537,"Iglesia Evangélica Filadelfia Aldaya 41, 42 y 43",-3.6480512564009726,40.477672230575884,1492.4660794319793,Bicipark Fuente de la Mora,Estación de Fuente de la Mora
11744843,Iglesia Evangélica Filadelfia Antonio González Porras 21,-3.7176498792496906,40.390589205529665,3816.2489425529675,Bicipark Montalban,"Calle de Montalbán, 5"
11772486,Iglesia Evangélica Filadelfia Avenida Guadalajara 37,-3.6197188348913105,40.42002369011433,5173.109488256128,Bicipark Salamanca,Pl. del Marqués de Salamanca
11771433,Iglesia Evangélica Filadelfia calle Luis Cernuda,-3.653005712125586,40.440110358334735,2472.316378836794,Bicipark Salamanca,Pl. del Marqués de Salamanca
7065980,Iglesia Evangélica Filadelfia calle Oso 19,-3.7052440230775514,40.409453044063135,1561.3001310421485,Bicipark Montalban,"Calle de Montalbán, 5"
11770095,Iglesia Evangélica Filadelfia Cerro de los Ángeles 32,-3.7126889160076697,40.37875284587766,4753.11895993136,Bicipark Montalban,"Calle de Montalbán, 5"
11028343,Iglesia Evangélica Filadelfia del Centro,-3.7089216905673084,40.40931307515139,1825.223638026925,Bicipark Montalban,"Calle de Montalbán, 5"
11744885,Iglesia Evangélica Filadelfia Elvira Barrios 4,-3.7360404509749086,40.3957003972249,4267.280248343155,Bicipark Aviación,Parking Aviación Española
11744888,Iglesia Evangélica Filadelfia Fernando González 15,-3.72103086312969,40.39180701085305,3891.7468944182283,Bicipark Montalban,"Calle de Montalbán, 5"
11778201,Iglesia Evangélica Filadelfia García Llamas 41,-3.6698802897236034,40.38533512440142,4052.6472394122407,Bicipark Montalban,"Calle de Montalbán, 5"
11745508,Iglesia Evangélica Filadelfia Getafe 25,-3.7080605588776208,40.34299224985532,7841.97830459657,Bicipark Aviación,Parking Aviación Española
11431457,Iglesia Evangélica Filadelfia Guadalquivir 1,-3.6853246238036528,40.44619399938698,1046.6509865390876,Bicipark Orense,"Avenida General Perón, 27"
11431601,Iglesia Evangélica Filadelfia Guillermo Pingarron 9,-3.6477186323226545,40.387393475080934,5002.734176237762,Bicipark Montalban,"Calle de Montalbán, 5"
11030099,Iglesia Evangélica Filadelfia Higinio Rodríguez 62,-3.6622858627113515,40.38672257682575,4246.042749886345,Bicipark Montalban,"Calle de Montalbán, 5"
11770121,Iglesia Evangélica Filadelfia Isabelita Usera 59,-3.7074073830087357,40.38150656323228,4306.273000887053,Bicipark Montalban,"Calle de Montalbán, 5"
11770131,Iglesia Evangélica Filadelfia Jaspe 56,-3.7066539512199044,40.37979944135075,4466.097806207658,Bicipark Montalban,"Calle de Montalbán, 5"
11769234,Iglesia Evangélica Filadelfia Lucano 17,-3.610456424036562,40.43949152296494,5918.866067073449,Bicipark Salamanca,Pl. del Marqués de Salamanca
11771501,Iglesia Evangélica Filadelfia Luis de Hoyos Sainz,-3.6390384001046554,40.4051469811212,4405.97291477908,Bicipark Salamanca,Pl. del Marqués de Salamanca
11772879,Iglesia Evangélica Filadelfia Luis Marín 2,-3.6392029649922164,40.39305380200769,5190.037356259908,Bicipark Montalban,"Calle de Montalbán, 5"
11772569,Iglesia Evangélica Filadelfia Manresa 48,-3.6933865159345056,40.49206894232612,2503.1050166594187,Bicipark Recuerdo,"Calle Hiedra, 26"
11778287,Iglesia Evangélica Filadelfia Mejorana 27,-3.672967700382854,40.383613937181266,4122.090170995617,Bicipark Montalban,"Calle de Montalbán, 5"
11769478,Iglesia Evangélica Filadelfia Nicolasa Gómez 39,-3.6134562575008045,40.441499522158246,5712.516690204476,Bicipark Salamanca,Pl. del Marqués de Salamanca
11772577,Iglesia Evangélica Filadelfia Nuestra Señora de Valverde 108,-3.6871152560912925,40.49688491376127,2447.861651378211,Bicipark Fuente de la Mora,Estación de Fuente de la Mora
12144599,Iglesia Evangélica Filadelfia Paseo Extremadura 179,-3.744625537533622,40.40753170377432,4257.754796054911,Bicipark Aviación,Parking Aviación Española
11769883,Iglesia Evangélica Filadelfia plaza Rendición de Breda,-3.731724453244233,40.377321699099916,4466.120234910774,Bicipark Aviación,Parking Aviación Española
11028338,Iglesia Evangélica Filadelfia Portugalete 29,-3.6336813603346316,40.427201283919715,3875.669539266173,Bicipark Salamanca,Pl. del Marqués de Salamanca
11778017,Iglesia Evangélica Filadelfia Quart de Poblet 41,-3.7478320658195923,40.397530422468876,3420.8304583924546,Bicipark Aviación,Parking Aviación Española
11777548,Iglesia Evangélica Filadelfia Rafael Finat 3,-3.7644040244201715,40.38362980952332,1638.167416956335,Bicipark Aviación,Parking Aviación Española
11028550,Iglesia Evangélica Filadelfia San Telesforo 13,-3.63546130603136,40.42519222607221,3752.5953533560273,Bicipark Salamanca,Pl. del Marqués de Salamanca
11771789,Iglesia Evangélica Filadelfia Sierra de Engarceran 7,-3.6239721321364655,40.37615336882075,7342.899944145215,Bicipark Montalban,"Calle de Montalbán, 5"
12144625,Iglesia Evangélica Filadelfia Villalobos 11,-3.647037080630487,40.381966779984396,5471.148561653838,Bicipark Montalban,"Calle de Montalbán, 5"
7065792,"Iglesia Evangélica Fuente de la Vida, Asambleas de Dios",-3.6639668234577245,40.392247405436166,3667.8840918393084,Bicipark Montalban,"Calle de Montalbán, 5"
11772565,Iglesia Evangélica Fuente de Vida Asambleas de Dios calle Ginzo de Limia,-3.70908725025374,40.48482265617191,1823.5016547998146,Bicipark Pitis,"Calle Pau Arroyo del Fresno, 181"
11777831,Iglesia Evangélica Gran Rey,-3.694838317655381,40.390162579463414,3126.3291451011646,Bicipark Montalban,"Calle de Montalbán, 5"
11777691,Iglesia Evangélica la Casa del Padre,-3.747206101955897,40.36773909619671,3558.401937625827,Bicipark Aviación,Parking Aviación Española
11777774,Iglesia Evangélica La Roca,-3.6936814974298464,40.404866930326506,1494.882897695445,Bicipark Montalban,"Calle de Montalbán, 5"
11745530,Iglesia Evangélica Luz del Mundo Cristo el Salvado,-3.7066954895515116,40.33791682003422,8269.804413662034,Bicipark Aviación,Parking Aviación Española
11778289,Iglesia Evangélica Miguel de la Roca 6,-3.672860306212846,40.383642670524296,4122.478874124039,Bicipark Montalban,"Calle de Montalbán, 5"
11771438,Iglesia Evangélica Movimiento Misionero Mundial,-3.640483215376134,40.437683474255266,3383.205873157788,Bicipark Salamanca,Pl. del Marqués de Salamanca
7063724,Iglesia Evangélica Nueva Vida,-3.63493385381463,40.436783183089666,3821.7650483911084,Bicipark Salamanca,Pl. del Marqués de Salamanca
7064948,Iglesia Evangélica Pentecostal Amistad Cristiana,-3.7082736874595725,40.437260988671255,1514.3834084329715,Bicipark Almagro,"Calle Almagro, 11"
18304,Iglesia Evangélica Pentecostal de Madrid,-3.7130157660880254,40.39426618909509,3254.550169672097,Bicipark Montalban,"Calle de Montalbán, 5"
11028417,Iglesia Evangélica Pentecostal Misión 1909,-3.721308792690415,40.390490853232684,4017.9325096411676,Bicipark Montalban,"Calle de Montalbán, 5"
7063715,Iglesia Evangélica Pentecostal Salem,-3.7461415702308978,40.36788858345182,3629.445085805146,Bicipark Aviación,Parking Aviación Española
7065603,Iglesia Evangélica Pueblo Nuevo,-3.6062164541990582,40.40598778349582,6755.4110298210235,Bicipark Salamanca,Pl. del Marqués de Salamanca
11770251,Iglesia Evangélica Spanish Council of Assemblies of God,-3.639101549206394,40.43977112521045,3558.409836245362,Bicipark Salamanca,Pl. del Marqués de Salamanca
7065918,Iglesia evangélica Templo de Dios. Calle Marquesa de Argüeso,-3.723833493100166,40.39147886800535,4079.0208290025153,Bicipark Montalban,"Calle de Montalbán, 5"
11744847,Iglesia Evangélica Adulam,-3.7242636555629756,40.38626397188235,4539.829321424543,Bicipark Montalban,"Calle de Montalbán, 5"
11771496,Iglesia Evangélica Agua de Vida,-3.732413055047557,40.38720364104392,4373.932623687121,Bicipark Aviación,Parking Aviación Española
11777784,Iglesia Evangélica Arca de Salvación,-3.698617401031242,40.39580823279452,2567.9759446081143,Bicipark Montalban,"Calle de Montalbán, 5"
11431523,Iglesia Evangélica Asamblea de Dios,-3.6743524168533828,40.445450329595324,1729.7051266709639,Bicipark Salamanca,Pl. del Marqués de Salamanca
7064962,Iglesia Evangélica Asamblea de Dios Misionera,-3.7424413236488863,40.40656295319298,4339.4095034229495,Bicipark Aviación,Parking Aviación Española
11778179,Iglesia Evangélica Avenida de San Diego 13,-3.670801576025196,40.38906135219218,3648.077703585705,Bicipark Montalban,"Calle de Montalbán, 5"
11026948,Iglesia Evangélica Avivamiento Emmanuel España,-3.7323123187363367,40.38519101985389,4367.164234792115,Bicipark Aviación,Parking Aviación Española
11027012,Iglesia Evangélica Buenas Nuevas la Gran Comisión,-3.7233440134536795,40.39240076651593,3976.319494547214,Bicipark Montalban,"Calle de Montalbán, 5"
11027019,Iglesia Evangélica Casa de la Misericordia,-3.734197628694965,40.39105388398816,4285.886050065066,Bicipark Aviación,Parking Aviación Española
11778176,Iglesia Evangélica Casa de Oración Alfredo Castro Camba 38,-3.670184738164075,40.38595471801731,3979.478581727926,Bicipark Montalban,"Calle de Montalbán, 5"
11744852,Iglesia Evangélica Centro de Misiones Kairos,-3.7294229863667314,40.38918327681501,4593.545470465176,Bicipark Montalban,"Calle de Montalbán, 5"
11745537,Iglesia Evangélica Centro de Salvación,-3.715179180845713,40.33869973474483,7655.689084267968,Bicipark Aviación,Parking Aviación Española
11772795,Iglesia Evangélica Emanuel Asambleas de Dios,-3.646865492459837,40.38965773372737,4889.553225742703,Bicipark Montalban,"Calle de Montalbán, 5"
11028319,Iglesia Evangélica Evangelizando las Naciones,-3.6938688031840106,40.35529078999778,6984.479649976545,Bicipark Montalban,"Calle de Montalbán, 5"
11744845,Iglesia Evangélica Filadelfia Armengot,-3.7187148158611465,40.396910203966605,3343.768699886147,Bicipark Montalban,"Calle de Montalbán, 5"
11744851,Iglesia Evangélica Fuente de Vida,-3.7312417599906453,40.39136955330053,4538.884549801185,Bicipark Aviación,Parking Aviación Española
11431454,Iglesia evangélica Fundación Federico Fliedner,-3.70421024880097,40.44493824188452,1249.5877461432347,Bicipark Orense,"Avenida General Perón, 27"
11745509,Iglesia Evangélica Isla de Patmos,-3.6809977145589596,40.35248166325973,7338.719469075575,Bicipark Montalban,"Calle de Montalbán, 5"
11431571,Iglesia Evangélica Jesús es el Señor Torre Fuerte,-3.739074970950569,40.38952280235475,3847.4631983497147,Bicipark Aviación,Parking Aviación Española
11028410,Iglesia Evangélica Manantial de Vida,-3.7130159457712084,40.379960391322925,4641.227276675073,Bicipark Montalban,"Calle de Montalbán, 5"
11769870,Iglesia Evangélica Ministerio Belem,-3.7327181507119738,40.38218662221814,4331.145002510512,Bicipark Aviación,Parking Aviación Española
11028415,Iglesia Evangélica Ministerio Pasión por Cristo,-3.7459391632325407,40.37160136859314,3467.508908833116,Bicipark Aviación,Parking Aviación Española
7065794,Iglesia Evangélica Ministerio Sembradores,-3.7415039307506968,40.40606887647842,4372.217113740673,Bicipark Aviación,Parking Aviación Española
11777515,Iglesia Evangélica Oteiza 45,-3.688095842219565,40.371042518166824,5235.459632163624,Bicipark Montalban,"Calle de Montalbán, 5"
11028554,Iglesia Evangélica Servidores de Vida,-3.738996818463832,40.387266618692394,3818.5039468352256,Bicipark Aviación,Parking Aviación Española
11770228,Iglesia Evangélica Sinaí,-3.7117610976737634,40.38087966202685,4504.99342701694,Bicipark Montalban,"Calle de Montalbán, 5"
7065706,Iglesia Evangélica Vino Nuevo el Rey Jesús,-3.7143270076698696,40.421834986222606,1800.0893077407093,Bicipark Villa de Paris,"Calle de Orellana, 23, 21"
11028542,Iglesia Gloria de Dios,-3.6402017241153257,40.431860693236985,3311.2523551520944,Bicipark Salamanca,Pl. del Marqués de Salamanca
11745355,Iglesia Hillsong España,-3.6977468863800387,40.45428823014499,357.7407071419297,Bicipark Orense,"Avenida General Perón, 27"
11028547,Iglesia Jesús es el Maestro,-3.7470680018458173,40.40246457556407,3756.2089691191595,Bicipark Aviación,Parking Aviación Española
7064624,Iglesia Libre de los Hermanos en Cristo,-3.744625537533622,40.40753170377432,4257.754796054911,Bicipark Aviación,Parking Aviación Española
11431597,Iglesia Ministerio Denuedo,-3.7286284347044356,40.38288913614371,4676.453103966249,Bicipark Aviación,Parking Aviación Española
11770233,Iglesia Ministerio Internacional Poder de Dios,-3.714065918790796,40.38226744795788,4447.285902066064,Bicipark Montalban,"Calle de Montalbán, 5"
11778293,Iglesia Ministerio Olas del Espíritu,-3.669688003509752,40.38450118448823,4143.13217687328,Bicipark Montalban,"Calle de Montalbán, 5"
11430960,Iglesia Misionera Asamblea Cristiana,-3.639096420331094,40.42743679266473,3415.6877846166312,Bicipark Salamanca,Pl. del Marqués de Salamanca
7063835,Iglesia Misionera Asamblea Cristiana Río Ulla 14,-3.642738285902067,40.43416644534178,3120.951512221389,Bicipark Salamanca,Pl. del Marqués de Salamanca
11732437,Iglesia Misionera Pentecostal de Cristo,-3.6986664775671785,40.42635538209311,429.71946468270704,Bicipark Villa de Paris,"Calle de Orellana, 23, 21"
11769853,Iglesia Misión Apostólica Mundial,-3.733352216029725,40.387011290888786,4292.556784061499,Bicipark Aviación,Parking Aviación Española
11778010,Iglesia Misión Apostólica Mundial Cuart de Poblet 53,-3.7480014357699902,40.39718265837727,3390.5531737763995,Bicipark Aviación,Parking Aviación Española
11777555,Iglesia Nueva Generación,-3.746573746167614,40.365916133593274,3707.739455152905,Bicipark Aviación,Parking Aviación Española
11431642,Iglesia Pentecostal Cezarea,-3.645493815150533,40.38203207203419,5555.679928976512,Bicipark Montalban,"Calle de Montalbán, 5"
11770271,Iglesia Pentecostal Dios es Amor,-3.6416912216853277,40.43766452292309,3283.318659744584,Bicipark Salamanca,Pl. del Marqués de Salamanca
11745341,Iglesia Pentecostal El Buen Samaritano,-3.734244509170327,40.39128043475081,4286.980247562892,Bicipark Aviación,Parking Aviación Española
11745460,Iglesia Pentecostal Unida de España Pedro Villar 2,-3.6968917477788623,40.462666965791996,1106.01633007776,Bicipark Orense,"Avenida General Perón, 27"
11744858,Iglesia Pentecostal Unida en Europa,-3.730942583215076,40.39051783514915,4546.66072143422,Bicipark Aviación,Parking Aviación Española
11028400,Iglesia Presbiteriana Coreana,-3.648186676834555,40.43091133149372,2630.0944706790174,Bicipark Salamanca,Pl. del Marqués de Salamanca
11772388,Iglesia Presbiteriana Coreana Sarang,-3.6230621112736663,40.37996165811028,7143.7970684831,Bicipark Montalban,"Calle de Montalbán, 5"
11778211,Iglesia Recolectora de Jesús,-3.668253737993157,40.39257082161804,3423.9727001165975,Bicipark Montalban,"Calle de Montalbán, 5"
11778152,Iglesia Tabernáculo de Alabanza,-3.5941117628775663,40.39947775831266,7990.382216875584,Bicipark Salamanca,Pl. del Marqués de Salamanca
11026245,Iglesia Vida Apasionada,-3.674760030213652,40.41156966174721,1543.8325403558638,Bicipark Montalban,"Calle de Montalbán, 5"
7065052,Iglesia Vida Nueva para las Naciones,-3.640605162273815,40.42727582925555,3290.032892254207,Bicipark Salamanca,Pl. del Marqués de Salamanca
11431568,Iglesia Vidapasionada,-3.68037479130131,40.405437081813716,1665.076523868901,Bicipark Montalban,"Calle de Montalbán, 5"
11026103,Immanuel Baptist Church,-3.6514595783618526,40.44683079932284,2981.9217848449794,Bicipark Salamanca,Pl. del Marqués de Salamanca
11745353,Ministerio Jesucristo Pan de Vida,-3.7239204204508365,40.390959130810465,4126.14275544081,Bicipark Montalban,"Calle de Montalbán, 5"
11773041,Ministerio pastoral y misionero por amor a su Cruz,-3.7060431427322893,40.468031042847564,1963.9839549959852,Bicipark Orense,"Avenida General Perón, 27"
11778146,Misión Carismática Internacional,-3.6737581285053764,40.50842533620422,2787.7680403520058,Bicipark Fuente de la Mora,Estación de Fuente de la Mora
11030093,Misión Evangélica Maranata,-3.667369691758153,40.38430044082525,4251.625627969344,Bicipark Montalban,"Calle de Montalbán, 5"
11431636,Movimiento Misionero Mundial,-3.6664419029385753,40.380772870423094,4636.121749152748,Bicipark Montalban,"Calle de Montalbán, 5"
11770282,Movimiento Misionero Mundial calle Germán Pérez Carrasco 92,-3.640483215376134,40.437683474255266,3383.205873157788,Bicipark Salamanca,Pl. del Marqués de Salamanca
11771462,Movimiento Misionero Mundial Sambara 167,-3.6412284927425222,40.43851402923929,3345.772774197968,Bicipark Salamanca,Pl. del Marqués de Salamanca
3742,Primera Iglesia Evangélica Bautista de Madrid,-3.6909181560446576,40.40359707134785,1615.5889141549042,Bicipark Montalban,"Calle de Montalbán, 5"
7064921,Templo Evangélico Comunidad de Oración,-3.6549797237044177,40.43113872141274,2054.86982269023,Bicipark Salamanca,Pl. del Marqués de Salamanca
189403,Testigos Cristianos de Jehová. Avenida de Moratalaz,-3.6480628737257152,40.40711568603655,3688.791814311896,Bicipark Salamanca,Pl. del Marqués de Salamanca
11731145,Testigos Cristianos de Jehová. Calle Andaluces,-3.6480628737257152,40.40711568603655,3688.791814311896,Bicipark Salamanca,Pl. del Marqués de Salamanca
189353,Testigos Cristianos de Jehová. Calle Arroyo,-3.7025298582429698,40.46978728598973,2005.5560730164123,Bicipark Orense,"Avenida General Perón, 27"
189354,Testigos Cristianos de Jehová. Calle Artistas,-3.7015290370510474,40.44728893529121,904.1845720851252,Bicipark Orense,"Avenida General Perón, 27"
5713730,Testigos Cristianos de Jehová. Calle Carrascales,-3.7082093955604063,40.38152721787896,4326.90535654006,Bicipark Montalban,"Calle de Montalbán, 5"
11731416,Testigos Cristianos de Jehová. Calle Cebreros,-3.741418434816632,40.40480734723471,4299.512926659235,Bicipark Aviación,Parking Aviación Española
189389,Testigos Cristianos de Jehová. Calle Chantada,-3.7161763610140874,40.47295576678733,2657.878833055065,Bicipark Pitis,"Calle Pau Arroyo del Fresno, 181"
11731398,Testigos Cristianos de Jehová. Calle de Los Gallegos,-3.6076479923249063,40.40140094836679,6867.277108846687,Bicipark Salamanca,Pl. del Marqués de Salamanca
189398,Testigos Cristianos de Jehová. Calle Doctor Gómez Ulla,-3.667513892714285,40.4299768268144,989.9684427512152,Bicipark Salamanca,Pl. del Marqués de Salamanca
189402,Testigos Cristianos de Jehová. Calle Guamo,-3.6329921848042237,40.472423257425966,2890.918106093085,Bicipark Fuente de la Mora,Estación de Fuente de la Mora
189356,Testigos Cristianos de Jehová. Calle Hilario Sangrador,-3.7424991074388743,40.407960942737944,4428.9253604934975,Bicipark Aviación,Parking Aviación Española
11432581,Testigos Cristianos de Jehová. Calle Ignacio Ellacuría,-3.6568904225379044,40.42908868520633,1895.626987609228,Bicipark Salamanca,Pl. del Marqués de Salamanca
189404,Testigos Cristianos de Jehová. Calle Jacobinia,-3.7538276002522437,40.377563130203534,2620.3362286637202,Bicipark Aviación,Parking Aviación Española
5713929,Testigos Cristianos de Jehová. Calle Las Pedroñeras,-3.630892617916542,40.46740772482656,3335.327538512178,Bicipark Fuente de la Mora,Estación de Fuente de la Mora
11731157,Testigos Cristianos de Jehová. Calle Los Mineros,-3.7284140387696176,40.382847153138805,4694.726789307038,Bicipark Aviación,Parking Aviación Española
5713667,Testigos Cristianos de Jehová. Calle Luis Ruiz,-3.6360652956995043,40.4280279977347,3666.704101868292,Bicipark Salamanca,Pl. del Marqués de Salamanca
11731420,Testigos Cristianos de Jehová. Calle Manola y Rosario,-3.7132155792734167,40.34412915451855,7412.3002972341465,Bicipark Aviación,Parking Aviación Española
189415,Testigos Cristianos de Jehová. Calle Marcudos,-3.701720159931242,40.38853080646351,3417.023707021346,Bicipark Montalban,"Calle de Montalbán, 5"
189957,Testigos Cristianos de Jehová. Calle Martín de Vargas,-3.701734952593744,40.40244073010048,1976.1248020525704,Bicipark Montalban,"Calle de Montalbán, 5"
11432584,Testigos Cristianos de Jehová. Calle Martín Martínez,-3.6726508650238014,40.446837359952966,1916.3052755063286,Bicipark Salamanca,Pl. del Marqués de Salamanca
189410,Testigos Cristianos de Jehová. Calle Puerto de Pozazal,-3.6290579482359915,40.37941728069035,6779.11250030514,Bicipark Montalban,"Calle de Montalbán, 5"
189966,Testigos Cristianos de Jehová. Calle San Moisés,-3.665580023171385,40.382077738308396,4540.890504813517,Bicipark Montalban,"Calle de Montalbán, 5"
11731404,Testigos Cristianos de Jehová. Calle Santa Ana Baja,-3.6907339951292277,40.497192617458886,2725.9521151771487,Bicipark Fuente de la Mora,Estación de Fuente de la Mora
11731328,Testigos Cristianos de Jehová. Calle Sierra del Sabiñar,-3.618489004433822,40.373674231018306,7877.8346242914195,Bicipark Montalban,"Calle de Montalbán, 5"
11731432,Testigos Cristianos de Jehová. Calle Sierra Salvada,-3.618489004433822,40.373674231018306,7877.8346242914195,Bicipark Montalban,"Calle de Montalbán, 5"
11432588,Testigos Cristianos de Jehová. Calle Tembleque,-3.7603005676344834,40.395189097488895,2373.364459104405,Bicipark Aviación,Parking Aviación Española
189351,Testigos Cristianos de Jehová. Calle Venancio Martín,-3.6614706779617716,40.39795732762339,3349.2868932208657,Bicipark Montalban,"Calle de Montalbán, 5"
11731424,Testigos Cristianos de Jehová. Calle Ámbar,-3.618489004433822,40.373674231018306,7877.8346242914195,Bicipark Montalban,"Calle de Montalbán, 5"
11745450,The Korea Assemblies of God Full Gospel Madrid Som,-3.7006356397364564,40.448161490124384,782.4525777565464,Bicipark Orense,"Avenida General Perón, 27"
11744837,Unión de Iglesias Cristianas Adventistas del 7.º día. Alejandro Sánchez 49,-3.7220735760780994,40.39015896044393,4088.0511924411235,Bicipark Montalban,"Calle de Montalbán, 5"
11431653,Unión de Iglesias Cristianas Adventistas del 7º día Doctor Bellido 13,-3.667388786715533,40.384743037956014,4207.475667763473,Bicipark Montalban,"Calle de Montalbán, 5"
7064614,"Unión de Iglesias Cristianas Adventistas del 7º día. Alenza, 6",-3.700489559324882,40.443575443757055,1183.9526030002442,Bicipark Orense,"Avenida General Perón, 27"
11768905,Unión de Iglesias Cristianas Adventistas del 7º día. Austria 2,-3.6080217648238966,40.424745913913924,6069.318542286176,Bicipark Salamanca,Pl. del Marqués de Salamanca
7065947,Unión de Iglesias Cristianas Adventistas del 7º día. Calle Hermanos Gómez 32,-3.649838033163314,40.43025079764197,2489.1572272667404,Bicipark Salamanca,Pl. del Marqués de Salamanca
11778015,Unión de Iglesias Cristianas Adventistas del 7º día. Calle Los Yébenes 255,-3.751562379802795,40.38947474678948,2808.1420777619655,Bicipark Aviación,Parking Aviación Española
11744860,Unión de Iglesias Cristianas Adventistas del 7º día. Doctor Zofío 4,-3.738156333879843,40.3948228497844,4066.1546424254043,Bicipark Aviación,Parking Aviación Española
11773010,Yoido Full Gospel Madrid Church,-3.709604761566092,40.46055142835657,1575.8745075690501,Bicipark Orense,"Avenida General Perón, 27"
