id,title,longitude,latitude,distancia,name_bicimad,address_bicimad
11772877,Asamblea Cristiana Gilgal,-3.638521057740299,40.38724931072868,1494.5292065577985,221 - Pavones,Calle Hacienda de Pavones nº 342
11025958,Asambleas de Evangelización Mundial para Cristo (AEMC),-3.745073767335671,40.372800292475574,3719.349549993256,212 - Marqués de Vadillo,Glorieta Marqués de Vadillo nº 9
11026848,Asociación Evangélica Internacional,-3.6706745177055007,40.457895405861926,486.25046181153465,160 - Colombia,Calle Colombia nº 7
3387,Catedral Anglicana de Madrid,-3.6986664775671785,40.42635538209311,149.9907846514319,7 - Hortaleza,Calle Hortaleza nº 75
3388,Catedral Ortodoxa Griega. Santa Iglesia Catedral de los Santos Andrés y Demetrio,-3.672894912820636,40.45755529500435,294.5491849953271,160 - Colombia,Calle Colombia nº 7
11030102,Centro Apostólico Cristo Viene,-3.6960683266163925,40.383724492823504,676.7476538295142,213 - Glorieta de Cádiz,Calle Antonio López nº 129
7063869,Centro Cristiano Ciudad de Refugio,-3.6876586251390493,40.34192622597721,5260.872551621614,235 - Embajadores 191,Calle Sodio nº 1B
11745480,Centro Cristiano Cuatro Caminos,-3.700994547334428,40.456100287456294,131.28586863050413,155 - San Germán 57,Calle San Germán nº 57
11772518,Centro Cristiano Evangélico,-3.6154573903495684,40.40685383679603,1776.4346247840233,221 - Pavones,Calle Hacienda de Pavones nº 342
11777752,Centro Cristiano Evangélico Independiente,-3.747166775976031,40.368892245184576,4167.243519771257,212 - Marqués de Vadillo,Glorieta Marqués de Vadillo nº 9
11028407,Centro Cristiano Internacional Barcelona,-3.7668506940875517,40.380332955379934,4562.06618420834,224 - Caramuel,Calle Caramuel nº 51
3751,Centro Cultural Islámico. Mezquita de Madrid,-3.6573554749897212,40.43852894692424,184.0612984806422,231 - Derechos Humanos,Calle Derechos Humanos nº 12
7066102,Centro de Evangelización Anuncio de Paz,-3.665233691809319,40.39477355030102,120.58392726303057,227 - Concordia,Calle Arroyo del Olivar nº 6
11769868,Centro de Fe y Esperanza Internacional de España,-3.7316618578640703,40.38575649321376,1887.0590356412383,212 - Marqués de Vadillo,Glorieta Marqués de Vadillo nº 9
7064897,Centro Evangélico de Restauración Aliento de Vida,-3.6268000188410188,40.37887387719392,2476.636954781533,221 - Pavones,Calle Hacienda de Pavones nº 342
11745535,Christ Missions Evangelical Church,-3.681517625700249,40.35242427567422,4158.509201043921,235 - Embajadores 191,Calle Sodio nº 1B
11771489,Christ The Master Filipino Christian Fellowship,-3.707887319176637,40.47751222856838,1694.1959180178835,217 - Pedro Rico,Calle Pedro Rico nº 4
11772695,Comunidad Cristiana Betania,-3.735961169071446,40.483378084085,3628.699798367171,261 - Facultad Derecho,Avenida Complutense nº 23
11768989,Comunidad Cristiana Casa de Bendición,-3.610188031875868,40.444795655280224,3104.7558998872596,215 - Gutierre de Cetina,Calle Gutierre de Cetina nº 77
3740,Comunidad Cristiana Eben-Ezer de la Villa de Vallecas,-3.6181096496598038,40.37152812090639,3494.72886324739,221 - Pavones,Calle Hacienda de Pavones nº 342
11772813,Comunidad Cristiana Eben-Ezer Dios es Amor,-3.6629623449024975,40.39623572695798,360.1260626695244,226 - Sierra Toledana,Camino de Valderribas nº 94
7063730,Comunidad Cristiana Eben-Ezer Hortaleza,-3.6436863685291523,40.47803083728167,3445.001651059601,254 - Pío XII,Avenida Pío XII nº 3
11778302,Comunidad Cristiana Evangélica El Faro,-3.6675631832603,40.39240706108415,209.85311255611865,227 - Concordia,Calle Arroyo del Olivar nº 6
7065996,Comunidad Cristiana Maranatha,-3.6800894670027358,40.40503855717772,27.92105288296275,79 - Puerta de Granada,Avenida de Menéndez Pelayo nº 38
11745488,Comunidad Cristiana Misionera Newma España,-3.7138105528343224,40.338947832675025,5671.918985115659,213 - Glorieta de Cádiz,Calle Antonio López nº 129
7064568,Comunidad Cristiana Sendero de la Cruz,-3.631374057578604,40.43189156564133,851.6115150892308,215 - Gutierre de Cetina,Calle Gutierre de Cetina nº 77
11431093,Comunidad Eben-Ezer Dios Es Amor,-3.647037080630487,40.381966779984396,2076.133843801579,227 - Concordia,Calle Arroyo del Olivar nº 6
7065908,Comunidad Evangélica de habla alemana de Madrid,-3.689422328230453,40.42721250117197,50.92570999638729,104 - Castellana,Paseo de la Castellana nº 4
11025240,Comunidad Evangélica Internacional,-3.74651822287228,40.366381452000546,4356.435940803919,212 - Marqués de Vadillo,Glorieta Marqués de Vadillo nº 9
11773006,Fraternidad Cristiana Vida Nueva,-3.701559520848318,40.45954045233268,255.72072408855894,155 - San Germán 57,Calle San Germán nº 57
7064565,Iglesia  Evangélica Bautista Pueblo Nuevo,-3.6441835021326243,40.433881823976215,390.73906531730233,232 - José María Pereda,Calle José María de Pereda nº 1
11026241,Iglesia Abundante Vida,-3.744863153558721,40.36948386820239,3995.552138728153,212 - Marqués de Vadillo,Glorieta Marqués de Vadillo nº 9
11745490,Iglesia Alianza Cristiana y Misionera,-3.6903411051943804,40.34938955813733,4427.132809189671,235 - Embajadores 191,Calle Sodio nº 1B
3386,Iglesia Anglicana Sección Española de la Diócesis en Europa,-3.682755618134939,40.42670809944061,121.80116214752252,87 - Ayala,Calle Ayala nº 44
7066142,Iglesia Asamblea Cristiana de Madrid,-3.6403338362133675,40.386045219549125,1663.5928799454064,221 - Pavones,Calle Hacienda de Pavones nº 342
11026250,Iglesia Asamblea de Dios Belén,-3.6441399002858303,40.42985610848436,267.46866652300974,215 - Gutierre de Cetina,Calle Gutierre de Cetina nº 77
11025964,Iglesia Bautista Calvario,-3.6488513828849785,40.45911690185054,1711.3657829406457,230 - Carlota O’Neill,Calle Carlota O'Neill nº 32
11777516,Iglesia Bautista de Alameda de Osuna,-3.5799608501207385,40.46013668353802,6130.7473665986045,230 - Carlota O’Neill,Calle Carlota O'Neill nº 32
7064876,Iglesia Bautista de Jesús,-3.739235702341104,40.405049702498715,1015.46738871044,224 - Caramuel,Calle Caramuel nº 51
11769014,"Iglesia Bautista de Jesús (José Villena, 10)",-3.655823971182136,40.431333124979844,274.64120809186375,188 - Puente de Ventas,Avenida de Daroca nº 2
7064915,Iglesia Bautista de Vallecas,-3.6630343908266862,40.395652155665495,318.821020807699,227 - Concordia,Calle Arroyo del Olivar nº 6
11771765,Iglesia Bíblica Reto a la Esperanza Camino de Hormigueras 137,-3.643042097371311,40.374809606409876,2870.5228082481126,227 - Concordia,Calle Arroyo del Olivar nº 6
11026113,Iglesia Bíblica,-3.580075615330767,40.47232582672411,6651.112657983688,230 - Carlota O’Neill,Calle Carlota O'Neill nº 32
11771515,Iglesia Bíblica Reto a la Esperanza,-3.643042097371311,40.374809606409876,2870.5228082481126,227 - Concordia,Calle Arroyo del Olivar nº 6
11778140,Iglesia Bíblica Vida Nueva Madrid,-3.6673971793876783,40.48730378881032,1756.0039237842166,249 - Manuel Caldeiro,Paseo de la Castellana nº 298
11732447,Iglesia Catedral del Redentor,-3.6986664775671785,40.42635538209311,149.9907846514319,7 - Hortaleza,Calle Hortaleza nº 75
7064593,Iglesia CENFOL España,-3.648807352035274,40.4651811895254,2384.7760145315806,230 - Carlota O’Neill,Calle Carlota O'Neill nº 32
7064594,Iglesia Centro Cristiano Adonay,-3.691253820762234,40.35010688886286,4348.143438655223,235 - Embajadores 191,Calle Sodio nº 1B
11025949,Iglesia Centro Cristinano Adonay,-3.713824312166029,40.33811971589477,5762.20224113737,213 - Glorieta de Cádiz,Calle Antonio López nº 129
11772907,Iglesia China Evangélica Misión Internacional,-3.6636066213529817,40.396267707201616,335.2672239780107,227 - Concordia,Calle Arroyo del Olivar nº 6
11770206,Iglesia China Río de Esperanza,-3.7054387161429245,40.38450159065356,666.4344258475339,213 - Glorieta de Cádiz,Calle Antonio López nº 129
11772378,Iglesia Christ Embassy,-3.6461483186511154,40.374567244542426,2719.99642951511,227 - Concordia,Calle Arroyo del Olivar nº 6
11777733,Iglesia Comunidad Cristiana de Fe,-3.744863153558721,40.36948386820239,3995.552138728153,212 - Marqués de Vadillo,Glorieta Marqués de Vadillo nº 9
11777559,"Iglesia Comunidad Cristiana en España, CCL",-3.7471132818088884,40.368709165465525,4180.348794201788,212 - Marqués de Vadillo,Glorieta Marqués de Vadillo nº 9
11777745,Iglesia Coreana de Madrid Cheil,-3.746309510930643,40.36910408905974,4103.7061261130075,212 - Marqués de Vadillo,Glorieta Marqués de Vadillo nº 9
18298,Iglesia Cristiana Adventista del Séptimo Día. Madrid Alenza,-3.700489559324882,40.443575443757055,244.1585762621428,130 - Santa Engracia 127,Calle Santa Engracia nº 127
190017,Iglesia Cristiana Adventista del Séptimo Día. Madrid Aluche,-3.751562379802795,40.38947474678948,2930.645984670545,224 - Caramuel,Calle Caramuel nº 51
8353139,Iglesia Cristiana Adventista del Séptimo Día. Madrid Eben-Ezer,-3.6100802530279967,40.424237049023766,2692.7034159917093,215 - Gutierre de Cetina,Calle Gutierre de Cetina nº 77
190046,Iglesia Cristiana Adventista del Séptimo Día. Madrid Efes,-3.7220850553963856,40.390153190373084,1012.5882819055703,212 - Marqués de Vadillo,Glorieta Marqués de Vadillo nº 9
11417679,Iglesia Cristiana Adventista del Séptimo Día. Madrid Emaus,-3.6100802530279967,40.424237049023766,2692.7034159917093,215 - Gutierre de Cetina,Calle Gutierre de Cetina nº 77
6893233,Iglesia Cristiana Adventista del Séptimo Día. Madrid Habla Portuguesa,-3.738156333879843,40.3948228497844,1768.087468181289,223 - Ermita Santo,Paseo de la Ermita del Santo nº 48
8352971,Iglesia Cristiana Adventista del Séptimo Día. Madrid Horeb,-3.738156333879843,40.3948228497844,1768.087468181289,223 - Ermita Santo,Paseo de la Ermita del Santo nº 48
190054,Iglesia Cristiana Adventista del Séptimo Día. Madrid Resurrección,-3.6080217648238966,40.424745913913924,2851.6956860302657,215 - Gutierre de Cetina,Calle Gutierre de Cetina nº 77
190014,Iglesia Cristiana Adventista del Séptimo Día. Madrid Vallecas,-3.667388786715533,40.384743037956014,1016.5204506389751,227 - Concordia,Calle Arroyo del Olivar nº 6
190059,Iglesia Cristiana Adventista del Séptimo Día. Madrid Ventas,-3.649838033163314,40.43025079764197,295.8697116268871,232 - José María Pereda,Calle José María de Pereda nº 1
11769743,Iglesia Cristiana Adventista Rusia 11,-3.6100802530279967,40.424237049023766,2692.7034159917093,215 - Gutierre de Cetina,Calle Gutierre de Cetina nº 77
11777708,Iglesia Cristiana Adventista Secoya 19,-3.7449067888210887,40.3692641254172,4017.302844500673,212 - Marqués de Vadillo,Glorieta Marqués de Vadillo nº 9
11768941,Iglesia Cristiana Bautista Betel,-3.5657783371016496,40.44777785297718,6689.74100236166,215 - Gutierre de Cetina,Calle Gutierre de Cetina nº 77
11771794,Iglesia Cristiana Bautista de Vallecas,-3.6217714951930553,40.37548350089073,2969.7622731155607,221 - Pavones,Calle Hacienda de Pavones nº 342
11745350,Iglesia Cristiana Casa de mi Padre,-3.734867022776862,40.39087260351759,1754.4615099423818,212 - Marqués de Vadillo,Glorieta Marqués de Vadillo nº 9
11770106,Iglesia Cristiana China en España,-3.708765245871834,40.38487927104675,858.4660162561814,213 - Glorieta de Cádiz,Calle Antonio López nº 129
7064802,Iglesia Cristiana Corazón de León,-3.703424906084702,40.41498820459974,41.03322654741766,34 - Jacinto Benavente,Plaza de Jacinto Benavente
7065462,Iglesia Cristiana Evangélica Casa de Oración,-3.6694435929153446,40.43146551176339,173.08394805834376,192 - Avenida de los Toreros,Avenida de los Toreros nº 3
23684,Iglesia Cristiana Evangélica de Aluche,-3.7515244313543996,40.38654839663729,3178.167892505893,224 - Caramuel,Calle Caramuel nº 51
11026266,Iglesia Cristiana Evangelica de Chamartín,-3.671802881446396,40.45777867348771,389.67987192842827,160 - Colombia,Calle Colombia nº 7
7065093,Iglesia Cristiana Evangélica El Buen Pastor de Madrid,-3.660560405682932,40.398863439810455,24.94214068896453,226 - Sierra Toledana,Camino de Valderribas nº 94
11772717,Iglesia Cristiana Evangélica en Suanzes,-3.6247473743912937,40.44047986175515,1825.2643200363223,215 - Gutierre de Cetina,Calle Gutierre de Cetina nº 77
11777569,Iglesia Cristiana Evangélica Ministerio Misionero,-3.747406133925766,40.36613220090543,4423.1314564876675,212 - Marqués de Vadillo,Glorieta Marqués de Vadillo nº 9
11771780,Iglesia Cristiana Evangélica Pentecostal Shekinah,-3.618810637876165,40.38013097479169,2616.1059382643884,221 - Pavones,Calle Hacienda de Pavones nº 342
11772738,Iglesia Cristiana Evangélica Buen Pastor,-3.6607166902116255,40.39872139426903,33.0350625530935,226 - Sierra Toledana,Camino de Valderribas nº 94
11431586,Iglesia Cristiana Evangélica Casa del Alfarero,-3.642738285902067,40.43416644534178,516.9425445353827,215 - Gutierre de Cetina,Calle Gutierre de Cetina nº 77
11772883,Iglesia Cristiana Evangélica Casa del Alfarero calle Monte Oliveti 34,-3.665001047668981,40.39707997332226,369.5390762379812,227 - Concordia,Calle Arroyo del Olivar nº 6
11744838,Iglesia Cristiana Evangélica La Puerta Antonia Lacha 19,-3.7210711437076016,40.38577382922113,1436.3310844239297,212 - Marqués de Vadillo,Glorieta Marqués de Vadillo nº 9
11431592,Iglesia Cristiana Evangélica La Puerta Jose María Pereda 41,-3.6478799279685483,40.430482689220426,254.59246727854585,232 - José María Pereda,Calle José María de Pereda nº 1
11772995,Iglesia Cristiana Filipina Cristo el Camino de Salvación,-3.700373838408467,40.462233128185645,202.09528387407968,206 - Metro Tetuán,Calle Marqués de Viana nº 3
7064620,Iglesia Cristiana Hosanna,-3.736823421959365,40.390022670284225,1945.4272792614488,212 - Marqués de Vadillo,Glorieta Marqués de Vadillo nº 9
11026233,Iglesia Cristiana Integral Casa sobre la Roca,-3.6556133054897137,40.456371724419725,1476.073833301645,214 - Condesa de Venadito,Calle Condesa de Venadito nº 2
11772893,Iglesia Cristiana Paraíso de Adoración,-3.663441976265768,40.40095823989181,312.62754739320667,226 - Sierra Toledana,Camino de Valderribas nº 94
11777645,Iglesia Cristiana Reconcíliate con Dios,-3.7476502733606907,40.365608004560805,4482.36613430676,212 - Marqués de Vadillo,Glorieta Marqués de Vadillo nº 9
11769773,Iglesia Cristiana Redimida de Dios,-3.771807908257487,40.397058274873146,3910.6986537761336,224 - Caramuel,Calle Caramuel nº 51
11777765,Iglesia Cristiana Roca Eterna,-3.6919234970185357,40.40396448534231,231.9460124542671,120 - Palos de la Frontera,Calle Palos de la Frontera nº 27
7065892,Iglesia Cristiana Santidad de Dios,-3.726361443652059,40.41181709187266,272.61033020136847,216 - Puerta del Ángel,Plaza Puerta del Ángel nº 4
11778138,Iglesia Cristiana Shalom Adonai,-3.6673971793876783,40.48730378881032,1756.0039237842166,249 - Manuel Caldeiro,Paseo de la Castellana nº 298
11768931,Iglesia Cristiana Verbo Butrón 20,-3.6085501605352426,40.42486808943805,2805.0817958394387,215 - Gutierre de Cetina,Calle Gutierre de Cetina nº 77
11777881,Iglesia Cruzada Cristiana Misión Vidaa,-3.6930580638077504,40.390225425864465,168.7465117329357,177 - Legazpi,Calle Bolívar nº 3
11769970,Iglesia Cuerpo de Cristo,-3.7321057793446486,40.38674603374035,1834.6969904335217,212 - Marqués de Vadillo,Glorieta Marqués de Vadillo nº 9
11772932,Iglesia Cuerpo de Cristo Ambrosio Vallejo 13,-3.706976226530615,40.45728970918039,106.7138115292123,239 - Francos Rodríguez,Calle Francos Rodríguez nº 62
7064883,"Iglesia Cuerpo de Cristo, Don Pedro",-3.7127590125142076,40.411650664950166,112.27340718337472,38 - Plaza de los Carros,Carrera de San Francisco nº 1
11431563,Iglesia Cuerpo de Cristo. Calle Avelino Fernández de la Poza,-3.6732010597964244,40.38467637366071,1075.2245415734599,180 - Méndez Álvaro,Calle Retama nº 5
7064917,Iglesia de Cristo - Madrid,-3.7010846337104173,40.451446329396504,225.67775785238382,152 - General Perón 1,Avenida del General Perón frente al nº 4
11772810,Iglesia de Dios de la Profecía,-3.6654538265600167,40.39858161508181,329.30667865627174,179 - Puente de Vallecas,Avenida de la Albufera nº 6
11745337,Iglesia de Dios Harul,-3.733832375459816,40.39066340698624,1688.7402414872413,212 - Marqués de Vadillo,Glorieta Marqués de Vadillo nº 9
11745515,Iglesia de Dios Vida Nueva,-3.6866489909092395,40.34231907757052,5221.764332701704,235 - Embajadores 191,Calle Sodio nº 1B
11771778,Iglesia de Dios (Verbo de Dios),-3.6285824907058113,40.3788846528378,2439.425931629215,221 - Pavones,Calle Hacienda de Pavones nº 342
11771785,"Iglesia de Dios, Verbo de Dios",-3.6304491509873005,40.3795481034142,2338.428469619921,221 - Pavones,Calle Hacienda de Pavones nº 342
10573493,Iglesia de Jesucristo de los Santos de los Últimos Días. Templo de Madrid,-3.6311541768043045,40.40094880979064,298.47287151201186,221 - Pavones,Calle Hacienda de Pavones nº 342
11773030,Iglesia de Jesucristo Palabra Miel,-3.707199076844166,40.45581078313137,123.12054551482068,239 - Francos Rodríguez,Calle Francos Rodríguez nº 62
11771467,Iglesia de los Discípulos de Cristo,-3.679001107245413,40.43669014117753,163.23693053124666,194 - Avenida de América 2,Calle Francisco Silvela nº 86
7065029,Iglesia de Los Elegidos de Dios,-3.7264778892367456,40.38119767358174,2070.9600004964796,212 - Marqués de Vadillo,Glorieta Marqués de Vadillo nº 9
11745346,Iglesia de Santidad Pentecostal,-3.6502931839980235,40.42920679348206,338.9855961601368,234 - Marqués de Corbera 52,Avenida Marqués de Corbera nº 52
11772557,Iglesia de Santidad Pentecostal Tomás Redondo 1,-3.6309383890620284,40.47301639392714,3595.8125957184193,230 - Carlota O’Neill,Calle Carlota O'Neill nº 32
147971,Iglesia de Scientology de España,-3.6977486316222152,40.41545025955645,193.17489207746698,29 - Marqués de Cubas,Calle del Marqués de Cubas nº 25
11773049,Iglesia de Una Esperanza,-3.689088695621236,40.373089513635435,1798.6893141398793,235 - Embajadores 191,Calle Sodio nº 1B
11770060,Iglesia del Evangelio Cuadrangular,-3.7424171547450222,40.38714515915696,2515.4928105727754,212 - Marqués de Vadillo,Glorieta Marqués de Vadillo nº 9
11431015,Iglesia del Rey Jesucristo,-3.733414326558791,40.4109568893467,460.9662428842035,224 - Caramuel,Calle Caramuel nº 51
11770209,Iglesia Dios es Amor Unión Cristiana Evangélica,-3.7000199485367538,40.38076277245949,909.2157056923103,213 - Glorieta de Cádiz,Calle Antonio López nº 129
7063734,Iglesia Dios es Amor - Unión Cristiana,-3.644274105325617,40.43829788787747,369.21529279414517,229 - C.D. Concepción,Calle Jose del Hierro nº 5
18306,Iglesia Ejército de Salvación Hermosilla,-3.6678489815151663,40.4254631855093,127.87631488509976,183 - Doctor Esquerdo-Hermosilla,Calle Hermosilla nº 135
11026824,Iglesia Ejército de Salvación Palomeras,-3.6402017057531606,40.388453004338494,1406.3223600374083,221 - Pavones,Calle Hacienda de Pavones nº 342
11431675,Iglesia Elan,-3.61293716036795,40.410210854887914,2138.2361547277205,221 - Pavones,Calle Hacienda de Pavones nº 342
11770164,Iglesia Emanuel (U.C.E.),-3.712516240146969,40.380164013828775,1432.086044322683,213 - Glorieta de Cádiz,Calle Antonio López nº 129
7065841,Iglesia Evangélica Alianza de Amor,-3.7178522152667624,40.3906699322105,848.1607193647169,212 - Marqués de Vadillo,Glorieta Marqués de Vadillo nº 9
7065383,Iglesia Evangélica Asociación Evangelización Mundial para Cristo,-3.6105786335561914,40.426919386996715,2599.4677522301654,215 - Gutierre de Cetina,Calle Gutierre de Cetina nº 77
7063848,Iglesia Evangélica Bautista Barrio del Pilar,-3.7031462815424594,40.47854647762778,1276.5783919341914,217 - Pedro Rico,Calle Pedro Rico nº 4
3385,Iglesia Evangélica Bautista El Buen Pastor,-3.6721867739655734,40.444250240065735,250.74941588662975,196 - Prosperidad,Calle Suero de Quiñones nº 2
11772926,Iglesia Evangélica Bautista Madrid - Vallecas,-3.6631919963225954,40.39573062189441,314.3802702675707,227 - Concordia,Calle Arroyo del Olivar nº 6
11770160,Iglesia Evangélica Bautista Madrid-Usera,-3.709839281335438,40.384490607528356,958.7898382269867,213 - Glorieta de Cádiz,Calle Antonio López nº 129
11768893,Iglesia Evangélica Bautista Villaverde,-3.689149100235942,40.3513909320076,4206.15256162249,235 - Embajadores 191,Calle Sodio nº 1B
11769744,Iglesia Evangélica Bíblica Misionera,-3.6155234566793832,40.44727187781195,2864.015201831612,230 - Carlota O’Neill,Calle Carlota O'Neill nº 32
7065547,Iglesia Evangélica Casa de Oración,-3.6630104948262883,40.37948258009744,1612.3954888260803,227 - Concordia,Calle Arroyo del Olivar nº 6
11772727,Iglesia Evangélica Celebración Cristiana San Sotero 5,-3.6228155135673554,40.437464332261335,1766.7497860156654,215 - Gutierre de Cetina,Calle Gutierre de Cetina nº 77
7065574,Iglesia Evangélica China Española,-3.704882718952069,40.4512456642724,284.9586341015331,205 - Estrecho,Calle Navarra nº 1
11772699,Iglesia Evangélica Comunidad de Fe,-3.6866551216026346,40.467647940628325,220.7303776792599,208 - Plaza de Castilla,Paseo de la Castellana nº 216
11745332,Iglesia Evangélica Comunidad de la Paz,-3.733832375459816,40.39066340698624,1688.7402414872413,212 - Marqués de Vadillo,Glorieta Marqués de Vadillo nº 9
7063679,Iglesia Evangélica Cristo Vive,-3.6537495353492995,40.46660577055004,2098.142971305557,254 - Pío XII,Avenida Pío XII nº 3
11025954,Iglesia Evangélica de Habla Inglesa en Madrid,-3.7186194926544465,40.444012178441184,432.32267585983703,203 - San Francisco de Sales,Calle General Ampudia nº 2
11773020,Iglesia Evangélica de Hermanos Camino de Vida,-3.709651032535349,40.461586004949886,556.6176782293799,239 - Francos Rodríguez,Calle Francos Rodríguez nº 62
7065594,Iglesia Evangélica de Hermanos El Shaddai,-3.7093869921748412,40.453348645022764,243.7541634058101,237 - Pablo Iglesias,Calle Francisco Balseiro nº 1
11028295,Iglesia Evangélica de Hermanos en Aluche - Madrid,-3.7660307873771934,40.39189873720004,3714.397976384392,224 - Caramuel,Calle Caramuel nº 51
11769877,Iglesia Evangélica de Hermanos en Carabanchel,-3.740167780086258,40.38977130974361,2211.912120713849,212 - Marqués de Vadillo,Glorieta Marqués de Vadillo nº 9
11431772,Iglesia Evangélica de Hermanos en Madrid calle Trafalgar,-3.701241599331296,40.43371124396547,89.0326044749234,126 - General Álvarez de Castro,Calle del General Álvarez de Castro nº 1
11431776,Iglesia Evangélica de Hermanos en Madrid. Calle Duque de Sesto,-3.6782871144773264,40.422519073596874,184.6867721892364,85 - Puerta de Madrid,Avenida de Menéndez Pelayo esquina calle O'Donnell
11768913,Iglesia Evangélica de la Resurrección I.E.E. Butrón 20,-3.6085501605352426,40.42486808943805,2805.0817958394387,215 - Gutierre de Cetina,Calle Gutierre de Cetina nº 77
7065598,Iglesia Evangélica del Nazareno,-3.7282699674878703,40.38370140121481,1895.2734214093407,212 - Marqués de Vadillo,Glorieta Marqués de Vadillo nº 9
11769005,Iglesia Evangélica El Hogar Cristiano,-3.600304793330195,40.42817382661681,3456.958944170898,215 - Gutierre de Cetina,Calle Gutierre de Cetina nº 77
11028306,Iglesia Evangélica Emaús,-3.5666134456579752,40.4487149362724,6654.413753813556,215 - Gutierre de Cetina,Calle Gutierre de Cetina nº 77
7063733,Iglesia Evangélica Encuentro con Dios,-3.6538664449213627,40.409918616524486,339.8832113443944,218 - Camino Vinateros,Calle Camino de los Vinateros nº 28
7065928,Iglesia Evangélica Española,-3.7120737849312566,40.40923676813966,245.1369553407171,37 - Plaza de San Francisco,Plaza de San Francisco nº 5
7065000,Iglesia Evangélica Española Noviciado 5,-3.708110408802556,40.425585219802336,91.8956169448535,15 - San Vicente Ferrer,Calle San Vicente Ferrer nº 64
11770241,Iglesia Evangélica Federación Asambleas de Dios de España,-3.634185577349754,40.439073872427564,1189.884677735638,215 - Gutierre de Cetina,Calle Gutierre de Cetina nº 77
11028330,"Iglesia Evangélica Fe, Esperanza y Amor",-3.628173673450934,40.43055108462239,1091.9169592897479,215 - Gutierre de Cetina,Calle Gutierre de Cetina nº 77
11773044,Iglesia Evangélica Filadelfia Albuñuelas 18,-3.6996276043947613,40.36598624149444,2550.355245922747,213 - Glorieta de Cádiz,Calle Antonio López nº 129
11772537,"Iglesia Evangélica Filadelfia Aldaya 41, 42 y 43",-3.6480512564009726,40.477672230575884,3114.672265887708,252 - Chamartín,Calle Rodríguez Jaén nº 40
11744843,Iglesia Evangélica Filadelfia Antonio González Porras 21,-3.7176498792496906,40.390589205529665,855.0774721026495,212 - Marqués de Vadillo,Glorieta Marqués de Vadillo nº 9
11772486,Iglesia Evangélica Filadelfia Avenida Guadalajara 37,-3.6197188348913105,40.42002369011433,2101.340108973945,215 - Gutierre de Cetina,Calle Gutierre de Cetina nº 77
11771433,Iglesia Evangélica Filadelfia calle Luis Cernuda,-3.653005712125586,40.440110358334735,239.51670825550858,231 - Derechos Humanos,Calle Derechos Humanos nº 12
7065980,Iglesia Evangélica Filadelfia calle Oso 19,-3.7052440230775514,40.409453044063135,105.65499300710682,44 - Plaza de Nelson Mandela,Calle Mesón de Paredes nº 35
11770095,Iglesia Evangélica Filadelfia Cerro de los Ángeles 32,-3.7126889160076697,40.37875284587766,1553.113448378226,213 - Glorieta de Cádiz,Calle Antonio López nº 129
11028343,Iglesia Evangélica Filadelfia del Centro,-3.7089216905673084,40.40931307515139,217.9184926323652,39 - Plaza de la Cebada,Plaza de la Cebada nº 16 
11744885,Iglesia Evangélica Filadelfia Elvira Barrios 4,-3.7360404509749086,40.3957003972249,1578.309365989283,223 - Ermita Santo,Paseo de la Ermita del Santo nº 48
11744888,Iglesia Evangélica Filadelfia Fernando González 15,-3.72103086312969,40.39180701085305,808.3746952805886,212 - Marqués de Vadillo,Glorieta Marqués de Vadillo nº 9
11778201,Iglesia Evangélica Filadelfia García Llamas 41,-3.6698802897236034,40.38533512440142,1000.9443759995161,227 - Concordia,Calle Arroyo del Olivar nº 6
11745508,Iglesia Evangélica Filadelfia Getafe 25,-3.7080605588776208,40.34299224985532,5147.0448610417325,213 - Glorieta de Cádiz,Calle Antonio López nº 129
11431457,Iglesia Evangélica Filadelfia Guadalquivir 1,-3.6853246238036528,40.44619399938698,86.94855651790424,137 - Plaza de la República Argentina,Plaza de la República Argentina nº 6
11431601,Iglesia Evangélica Filadelfia Guillermo Pingarron 9,-3.6477186323226545,40.387393475080934,1701.3462375084557,226 - Sierra Toledana,Camino de Valderribas nº 94
11030099,Iglesia Evangélica Filadelfia Higinio Rodríguez 62,-3.6622858627113515,40.38672257682575,847.8777469767304,227 - Concordia,Calle Arroyo del Olivar nº 6
11770121,Iglesia Evangélica Filadelfia Isabelita Usera 59,-3.7074073830087357,40.38150656323228,1029.9611096669914,213 - Glorieta de Cádiz,Calle Antonio López nº 129
11770131,Iglesia Evangélica Filadelfia Jaspe 56,-3.7066539512199044,40.37979944135075,1155.6740164301377,213 - Glorieta de Cádiz,Calle Antonio López nº 129
11769234,Iglesia Evangélica Filadelfia Lucano 17,-3.610456424036562,40.43949152296494,2809.733444284499,215 - Gutierre de Cetina,Calle Gutierre de Cetina nº 77
11771501,Iglesia Evangélica Filadelfia Luis de Hoyos Sainz,-3.6390384001046554,40.4051469811212,651.4622018512563,221 - Pavones,Calle Hacienda de Pavones nº 342
11772879,Iglesia Evangélica Filadelfia Luis Marín 2,-3.6392029649922164,40.39305380200769,901.7860776413848,221 - Pavones,Calle Hacienda de Pavones nº 342
11772569,Iglesia Evangélica Filadelfia Manresa 48,-3.6933865159345056,40.49206894232612,1289.0517118605967,217 - Pedro Rico,Calle Pedro Rico nº 4
11778287,Iglesia Evangélica Filadelfia Mejorana 27,-3.672967700382854,40.383613937181266,1194.7310424619204,180 - Méndez Álvaro,Calle Retama nº 5
11769478,Iglesia Evangélica Filadelfia Nicolasa Gómez 39,-3.6134562575008045,40.441499522158246,2678.517621678712,215 - Gutierre de Cetina,Calle Gutierre de Cetina nº 77
11772577,Iglesia Evangélica Filadelfia Nuestra Señora de Valverde 108,-3.6871152560912925,40.49688491376127,1758.0923873089876,217 - Pedro Rico,Calle Pedro Rico nº 4
12144599,Iglesia Evangélica Filadelfia Paseo Extremadura 179,-3.744625537533622,40.40753170377432,1377.4950577364261,224 - Caramuel,Calle Caramuel nº 51
11769883,Iglesia Evangélica Filadelfia plaza Rendición de Breda,-3.731724453244233,40.377321699099916,2655.221155176556,212 - Marqués de Vadillo,Glorieta Marqués de Vadillo nº 9
11028338,Iglesia Evangélica Filadelfia Portugalete 29,-3.6336813603346316,40.427201283919715,680.014286848777,215 - Gutierre de Cetina,Calle Gutierre de Cetina nº 77
11778017,Iglesia Evangélica Filadelfia Quart de Poblet 41,-3.7478320658195923,40.397530422468876,2084.3800728801125,224 - Caramuel,Calle Caramuel nº 51
11777548,Iglesia Evangélica Filadelfia Rafael Finat 3,-3.7644040244201715,40.38362980952332,4158.832060928528,224 - Caramuel,Calle Caramuel nº 51
11028550,Iglesia Evangélica Filadelfia San Telesforo 13,-3.63546130603136,40.42519222607221,686.7700635984472,215 - Gutierre de Cetina,Calle Gutierre de Cetina nº 77
11771789,Iglesia Evangélica Filadelfia Sierra de Engarceran 7,-3.6239721321364655,40.37615336882075,2835.877824118934,221 - Pavones,Calle Hacienda de Pavones nº 342
12144625,Iglesia Evangélica Filadelfia Villalobos 11,-3.647037080630487,40.381966779984396,2076.133843801579,227 - Concordia,Calle Arroyo del Olivar nº 6
7065792,"Iglesia Evangélica Fuente de la Vida, Asambleas de Dios",-3.6639668234577245,40.392247405436166,242.5544378449516,227 - Concordia,Calle Arroyo del Olivar nº 6
11772565,Iglesia Evangélica Fuente de Vida Asambleas de Dios calle Ginzo de Limia,-3.70908725025374,40.48482265617191,1797.2673612699305,217 - Pedro Rico,Calle Pedro Rico nº 4
11777831,Iglesia Evangélica Gran Rey,-3.694838317655381,40.390162579463414,155.36049823642648,177 - Legazpi,Calle Bolívar nº 3
11777691,Iglesia Evangélica la Casa del Padre,-3.747206101955897,40.36773909619671,4270.193446077346,212 - Marqués de Vadillo,Glorieta Marqués de Vadillo nº 9
11777774,Iglesia Evangélica La Roca,-3.6936814974298464,40.404866930326506,194.72975553150013,168 - Batalla del Salado,Paseo Santa María de la Cabeza nº 29
11745530,Iglesia Evangélica Luz del Mundo Cristo el Salvado,-3.7066954895515116,40.33791682003422,5693.849371018717,213 - Glorieta de Cádiz,Calle Antonio López nº 129
11778289,Iglesia Evangélica Miguel de la Roca 6,-3.672860306212846,40.383642670524296,1193.5413898397553,180 - Méndez Álvaro,Calle Retama nº 5
11771438,Iglesia Evangélica Movimiento Misionero Mundial,-3.640483215376134,40.437683474255266,670.8088737988309,229 - C.D. Concepción,Calle Jose del Hierro nº 5
7063724,Iglesia Evangélica Nueva Vida,-3.63493385381463,40.436783183089666,939.153778991423,215 - Gutierre de Cetina,Calle Gutierre de Cetina nº 77
7064948,Iglesia Evangélica Pentecostal Amistad Cristiana,-3.7082736874595725,40.437260988671255,188.61972986899355,245 - Galileo,Calle Galileo nº 63
18304,Iglesia Evangélica Pentecostal de Madrid,-3.7130157660880254,40.39426618909509,422.4788815505503,228 - San Delfín,Calle San Delfín nº 9
11028417,Iglesia Evangélica Pentecostal Misión 1909,-3.721308792690415,40.390490853232684,949.8438400996941,212 - Marqués de Vadillo,Glorieta Marqués de Vadillo nº 9
7063715,Iglesia Evangélica Pentecostal Salem,-3.7461415702308978,40.36788858345182,4202.442847824658,212 - Marqués de Vadillo,Glorieta Marqués de Vadillo nº 9
7065603,Iglesia Evangélica Pueblo Nuevo,-3.6062164541990582,40.40598778349582,2487.8956822908476,221 - Pavones,Calle Hacienda de Pavones nº 342
11770251,Iglesia Evangélica Spanish Council of Assemblies of God,-3.639101549206394,40.43977112521045,837.5751581120999,229 - C.D. Concepción,Calle Jose del Hierro nº 5
7065918,Iglesia evangélica Templo de Dios. Calle Marquesa de Argüeso,-3.723833493100166,40.39147886800535,971.0363222865873,212 - Marqués de Vadillo,Glorieta Marqués de Vadillo nº 9
11744847,Iglesia Evangélica Adulam,-3.7242636555629756,40.38626397188235,1481.5259040747292,212 - Marqués de Vadillo,Glorieta Marqués de Vadillo nº 9
11771496,Iglesia Evangélica Agua de Vida,-3.732413055047557,40.38720364104392,1818.8750435133181,212 - Marqués de Vadillo,Glorieta Marqués de Vadillo nº 9
11777784,Iglesia Evangélica Arca de Salvación,-3.698617401031242,40.39580823279452,53.0493177938995,175 - Jaime el Conquistador,Calle Jaime el Conquistador nº 30
11431523,Iglesia Evangélica Asamblea de Dios,-3.6743524168533828,40.445450329595324,160.18989391101135,196 - Prosperidad,Calle Suero de Quiñones nº 2
7064962,Iglesia Evangélica Asamblea de Dios Misionera,-3.7424413236488863,40.40656295319298,1214.6198192816505,224 - Caramuel,Calle Caramuel nº 51
11778179,Iglesia Evangélica Avenida de San Diego 13,-3.670801576025196,40.38906135219218,671.5710909692452,227 - Concordia,Calle Arroyo del Olivar nº 6
11026948,Iglesia Evangélica Avivamiento Emmanuel España,-3.7323123187363367,40.38519101985389,1970.662643454046,212 - Marqués de Vadillo,Glorieta Marqués de Vadillo nº 9
11027012,Iglesia Evangélica Buenas Nuevas la Gran Comisión,-3.7233440134536795,40.39240076651593,866.1042706898019,212 - Marqués de Vadillo,Glorieta Marqués de Vadillo nº 9
11027019,Iglesia Evangélica Casa de la Misericordia,-3.734197628694965,40.39105388398816,1694.8250535035493,212 - Marqués de Vadillo,Glorieta Marqués de Vadillo nº 9
11778176,Iglesia Evangélica Casa de Oración Alfredo Castro Camba 38,-3.670184738164075,40.38595471801731,945.942963018361,227 - Concordia,Calle Arroyo del Olivar nº 6
11744852,Iglesia Evangélica Centro de Misiones Kairos,-3.7294229863667314,40.38918327681501,1483.193311618146,212 - Marqués de Vadillo,Glorieta Marqués de Vadillo nº 9
11745537,Iglesia Evangélica Centro de Salvación,-3.715179180845713,40.33869973474483,5723.6564179621855,213 - Glorieta de Cádiz,Calle Antonio López nº 129
11772795,Iglesia Evangélica Emanuel Asambleas de Dios,-3.646865492459837,40.38965773372737,1573.1055811889248,226 - Sierra Toledana,Camino de Valderribas nº 94
11028319,Iglesia Evangélica Evangelizando las Naciones,-3.6938688031840106,40.35529078999778,3775.696442774643,213 - Glorieta de Cádiz,Calle Antonio López nº 129
11744845,Iglesia Evangélica Filadelfia Armengot,-3.7187148158611465,40.396910203966605,233.54754123840635,212 - Marqués de Vadillo,Glorieta Marqués de Vadillo nº 9
11744851,Iglesia Evangélica Fuente de Vida,-3.7312417599906453,40.39136955330053,1459.582246130489,212 - Marqués de Vadillo,Glorieta Marqués de Vadillo nº 9
11431454,Iglesia evangélica Fundación Federico Fliedner,-3.70421024880097,40.44493824188452,165.16840283659516,132 - Glorieta de los Cuatro Caminos,Calle Santa Engracia nº 168
11745509,Iglesia Evangélica Isla de Patmos,-3.6809977145589596,40.35248166325973,4160.453547339386,235 - Embajadores 191,Calle Sodio nº 1B
11431571,Iglesia Evangélica Jesús es el Señor Torre Fuerte,-3.739074970950569,40.38952280235475,2140.6643687123333,212 - Marqués de Vadillo,Glorieta Marqués de Vadillo nº 9
11028410,Iglesia Evangélica Manantial de Vida,-3.7130159457712084,40.379960391322925,1478.6042885531251,213 - Glorieta de Cádiz,Calle Antonio López nº 129
11769870,Iglesia Evangélica Ministerio Belem,-3.7327181507119738,40.38218662221814,2248.419568925341,212 - Marqués de Vadillo,Glorieta Marqués de Vadillo nº 9
11028415,Iglesia Evangélica Ministerio Pasión por Cristo,-3.7459391632325407,40.37160136859314,3868.4096797041184,212 - Marqués de Vadillo,Glorieta Marqués de Vadillo nº 9
7065794,Iglesia Evangélica Ministerio Sembradores,-3.7415039307506968,40.40606887647842,1152.4488464810663,224 - Caramuel,Calle Caramuel nº 51
11777515,Iglesia Evangélica Oteiza 45,-3.688095842219565,40.371042518166824,2031.8630144470715,235 - Embajadores 191,Calle Sodio nº 1B
11028554,Iglesia Evangélica Servidores de Vida,-3.738996818463832,40.387266618692394,2259.524096069292,212 - Marqués de Vadillo,Glorieta Marqués de Vadillo nº 9
11770228,Iglesia Evangélica Sinaí,-3.7117610976737634,40.38087966202685,1331.0840471760855,213 - Glorieta de Cádiz,Calle Antonio López nº 129
7065706,Iglesia Evangélica Vino Nuevo el Rey Jesús,-3.7143270076698696,40.421834986222606,230.4763405633316,116a - Plaza de España A,Calle Princesa nº 5
11028542,Iglesia Gloria de Dios,-3.6402017241153257,40.431860693236985,248.52897715122543,215 - Gutierre de Cetina,Calle Gutierre de Cetina nº 77
11745355,Iglesia Hillsong España,-3.6977468863800387,40.45428823014499,204.70220024684548,152 - General Perón 1,Avenida del General Perón frente al nº 4
11028547,Iglesia Jesús es el Maestro,-3.7470680018458173,40.40246457556407,1739.005870762799,224 - Caramuel,Calle Caramuel nº 51
7064624,Iglesia Libre de los Hermanos en Cristo,-3.744625537533622,40.40753170377432,1377.4950577364261,224 - Caramuel,Calle Caramuel nº 51
11431597,Iglesia Ministerio Denuedo,-3.7286284347044356,40.38288913614371,1988.179694301899,212 - Marqués de Vadillo,Glorieta Marqués de Vadillo nº 9
11770233,Iglesia Ministerio Internacional Poder de Dios,-3.714065918790796,40.38226744795788,1393.8619895487561,213 - Glorieta de Cádiz,Calle Antonio López nº 129
11778293,Iglesia Ministerio Olas del Espíritu,-3.669688003509752,40.38450118448823,1083.7412726346233,227 - Concordia,Calle Arroyo del Olivar nº 6
11430960,Iglesia Misionera Asamblea Cristiana,-3.639096420331094,40.42743679266473,299.0356586403551,215 - Gutierre de Cetina,Calle Gutierre de Cetina nº 77
7063835,Iglesia Misionera Asamblea Cristiana Río Ulla 14,-3.642738285902067,40.43416644534178,516.9425445353827,215 - Gutierre de Cetina,Calle Gutierre de Cetina nº 77
11732437,Iglesia Misionera Pentecostal de Cristo,-3.6986664775671785,40.42635538209311,149.9907846514319,7 - Hortaleza,Calle Hortaleza nº 75
11769853,Iglesia Misión Apostólica Mundial,-3.733352216029725,40.387011290888786,1892.548029061675,212 - Marqués de Vadillo,Glorieta Marqués de Vadillo nº 9
11778010,Iglesia Misión Apostólica Mundial Cuart de Poblet 53,-3.7480014357699902,40.39718265837727,2119.6683084453553,224 - Caramuel,Calle Caramuel nº 51
11777555,Iglesia Nueva Generación,-3.746573746167614,40.365916133593274,4401.237537425304,212 - Marqués de Vadillo,Glorieta Marqués de Vadillo nº 9
11431642,Iglesia Pentecostal Cezarea,-3.645493815150533,40.38203207203419,2174.6265866565473,227 - Concordia,Calle Arroyo del Olivar nº 6
11770271,Iglesia Pentecostal Dios es Amor,-3.6416912216853277,40.43766452292309,568.5697771390384,229 - C.D. Concepción,Calle Jose del Hierro nº 5
11745341,Iglesia Pentecostal El Buen Samaritano,-3.734244509170327,40.39128043475081,1686.6490444460412,212 - Marqués de Vadillo,Glorieta Marqués de Vadillo nº 9
11745460,Iglesia Pentecostal Unida de España Pedro Villar 2,-3.6968917477788623,40.462666965791996,54.83689148683386,207 - Remonta,Calle Azucenas nº 1
11744858,Iglesia Pentecostal Unida en Europa,-3.730942583215076,40.39051783514915,1490.3875172463613,212 - Marqués de Vadillo,Glorieta Marqués de Vadillo nº 9
11028400,Iglesia Presbiteriana Coreana,-3.648186676834555,40.43091133149372,203.0439877572712,232 - José María Pereda,Calle José María de Pereda nº 1
11772388,Iglesia Presbiteriana Coreana Sarang,-3.6230621112736663,40.37996165811028,2468.220859894666,221 - Pavones,Calle Hacienda de Pavones nº 342
11778211,Iglesia Recolectora de Jesús,-3.668253737993157,40.39257082161804,241.36661141667594,227 - Concordia,Calle Arroyo del Olivar nº 6
11778152,Iglesia Tabernáculo de Alabanza,-3.5941117628775663,40.39947775831266,3437.5102369814604,221 - Pavones,Calle Hacienda de Pavones nº 342
11026245,Iglesia Vida Apasionada,-3.674760030213652,40.41156966174721,164.47792593672776,74 - Puerta del Pacífico ,Avenida de Menéndez Pelayo nº 73
7065052,Iglesia Vida Nueva para las Naciones,-3.640605162273815,40.42727582925555,271.8629294969612,215 - Gutierre de Cetina,Calle Gutierre de Cetina nº 77
11431568,Iglesia Vidapasionada,-3.68037479130131,40.405437081813716,32.440031957978306,79 - Puerta de Granada,Avenida de Menéndez Pelayo nº 38
11026103,Immanuel Baptist Church,-3.6514595783618526,40.44683079932284,406.77822602357145,230 - Carlota O’Neill,Calle Carlota O'Neill nº 32
11745353,Ministerio Jesucristo Pan de Vida,-3.7239204204508365,40.390959130810465,1020.8444943410549,212 - Marqués de Vadillo,Glorieta Marqués de Vadillo nº 9
11773041,Ministerio pastoral y misionero por amor a su Cruz,-3.7060431427322893,40.468031042847564,924.3076736233819,207 - Remonta,Calle Azucenas nº 1
11778146,Misión Carismática Internacional,-3.6737581285053764,40.50842533620422,3281.8485133420013,217 - Pedro Rico,Calle Pedro Rico nº 4
11030093,Misión Evangélica Maranata,-3.667369691758153,40.38430044082525,1065.1345237640235,227 - Concordia,Calle Arroyo del Olivar nº 6
11431636,Movimiento Misionero Mundial,-3.6664419029385753,40.380772870423094,1450.5019569018032,227 - Concordia,Calle Arroyo del Olivar nº 6
11770282,Movimiento Misionero Mundial calle Germán Pérez Carrasco 92,-3.640483215376134,40.437683474255266,670.8088737988309,229 - C.D. Concepción,Calle Jose del Hierro nº 5
11771462,Movimiento Misionero Mundial Sambara 167,-3.6412284927425222,40.43851402923929,623.608173225455,229 - C.D. Concepción,Calle Jose del Hierro nº 5
3742,Primera Iglesia Evangélica Bautista de Madrid,-3.6909181560446576,40.40359707134785,304.9662577579143,120 - Palos de la Frontera,Calle Palos de la Frontera nº 27
7064921,Templo Evangélico Comunidad de Oración,-3.6549797237044177,40.43113872141274,345.9025747337812,188 - Puente de Ventas,Avenida de Daroca nº 2
189403,Testigos Cristianos de Jehová. Avenida de Moratalaz,-3.6480628737257152,40.40711568603655,172.3410577686964,219 - Marroquina,Calle Camino de los Vinateros nº 108
11731145,Testigos Cristianos de Jehová. Calle Andaluces,-3.6480628737257152,40.40711568603655,172.3410577686964,219 - Marroquina,Calle Camino de los Vinateros nº 108
189353,Testigos Cristianos de Jehová. Calle Arroyo,-3.7025298582429698,40.46978728598973,870.4297540787103,207 - Remonta,Calle Azucenas nº 1
189354,Testigos Cristianos de Jehová. Calle Artistas,-3.7015290370510474,40.44728893529121,116.98085127296821,133 - Raimundo Fernández,Calle Raimundo Fernández Villaverde nº 33
5713730,Testigos Cristianos de Jehová. Calle Carrascales,-3.7082093955604063,40.38152721787896,1070.2207565278395,213 - Glorieta de Cádiz,Calle Antonio López nº 129
11731416,Testigos Cristianos de Jehová. Calle Cebreros,-3.741418434816632,40.40480734723471,1194.6905860834468,224 - Caramuel,Calle Caramuel nº 51
189389,Testigos Cristianos de Jehová. Calle Chantada,-3.7161763610140874,40.47295576678733,1930.1000142901016,239 - Francos Rodríguez,Calle Francos Rodríguez nº 62
11731398,Testigos Cristianos de Jehová. Calle de Los Gallegos,-3.6076479923249063,40.40140094836679,2289.791402702945,221 - Pavones,Calle Hacienda de Pavones nº 342
189398,Testigos Cristianos de Jehová. Calle Doctor Gómez Ulla,-3.667513892714285,40.4299768268144,308.3308069711813,187 - Alcalá-Ventas,Calle Alejandro González nº 1
189402,Testigos Cristianos de Jehová. Calle Guamo,-3.6329921848042237,40.472423257425966,3464.5771363532776,230 - Carlota O’Neill,Calle Carlota O'Neill nº 32
189356,Testigos Cristianos de Jehová. Calle Hilario Sangrador,-3.7424991074388743,40.407960942737944,1192.5843676823931,224 - Caramuel,Calle Caramuel nº 51
11432581,Testigos Cristianos de Jehová. Calle Ignacio Ellacuría,-3.6568904225379044,40.42908868520633,297.36621347160974,188 - Puente de Ventas,Avenida de Daroca nº 2
189404,Testigos Cristianos de Jehová. Calle Jacobinia,-3.7538276002522437,40.377563130203534,3907.891486582171,212 - Marqués de Vadillo,Glorieta Marqués de Vadillo nº 9
5713929,Testigos Cristianos de Jehová. Calle Las Pedroñeras,-3.630892617916542,40.46740772482656,3045.590261368545,230 - Carlota O’Neill,Calle Carlota O'Neill nº 32
11731157,Testigos Cristianos de Jehová. Calle Los Mineros,-3.7284140387696176,40.382847153138805,1982.9027833954137,212 - Marqués de Vadillo,Glorieta Marqués de Vadillo nº 9
5713667,Testigos Cristianos de Jehová. Calle Luis Ruiz,-3.6360652956995043,40.4280279977347,457.865123288312,215 - Gutierre de Cetina,Calle Gutierre de Cetina nº 77
11731420,Testigos Cristianos de Jehová. Calle Manola y Rosario,-3.7132155792734167,40.34412915451855,5098.832089614473,213 - Glorieta de Cádiz,Calle Antonio López nº 129
189415,Testigos Cristianos de Jehová. Calle Marcudos,-3.701720159931242,40.38853080646351,139.608974883483,213 - Glorieta de Cádiz,Calle Antonio López nº 129
189957,Testigos Cristianos de Jehová. Calle Martín de Vargas,-3.701734952593744,40.40244073010048,262.0703478992197,121 - Santa María de la Cabeza,Paseo de Santa María de la Cabeza nº 58
11432584,Testigos Cristianos de Jehová. Calle Martín Martínez,-3.6726508650238014,40.446837359952966,366.52908318747325,196 - Prosperidad,Calle Suero de Quiñones nº 2
189410,Testigos Cristianos de Jehová. Calle Puerto de Pozazal,-3.6290579482359915,40.37941728069035,2373.305615702189,221 - Pavones,Calle Hacienda de Pavones nº 342
189966,Testigos Cristianos de Jehová. Calle San Moisés,-3.665580023171385,40.382077738308396,1305.3217356550138,227 - Concordia,Calle Arroyo del Olivar nº 6
11731404,Testigos Cristianos de Jehová. Calle Santa Ana Baja,-3.6907339951292277,40.497192617458886,1798.877579896287,217 - Pedro Rico,Calle Pedro Rico nº 4
11731328,Testigos Cristianos de Jehová. Calle Sierra del Sabiñar,-3.618489004433822,40.373674231018306,3264.112518421171,221 - Pavones,Calle Hacienda de Pavones nº 342
11731432,Testigos Cristianos de Jehová. Calle Sierra Salvada,-3.618489004433822,40.373674231018306,3264.112518421171,221 - Pavones,Calle Hacienda de Pavones nº 342
11432588,Testigos Cristianos de Jehová. Calle Tembleque,-3.7603005676344834,40.395189097488895,3109.795568579929,224 - Caramuel,Calle Caramuel nº 51
189351,Testigos Cristianos de Jehová. Calle Venancio Martín,-3.6614706779617716,40.39795732762339,131.42006014156664,226 - Sierra Toledana,Camino de Valderribas nº 94
11731424,Testigos Cristianos de Jehová. Calle Ámbar,-3.618489004433822,40.373674231018306,3264.112518421171,221 - Pavones,Calle Hacienda de Pavones nº 342
11745450,The Korea Assemblies of God Full Gospel Madrid Som,-3.7006356397364564,40.448161490124384,121.7709260872298,133 - Raimundo Fernández,Calle Raimundo Fernández Villaverde nº 33
11744837,Unión de Iglesias Cristianas Adventistas del 7.º día. Alejandro Sánchez 49,-3.7220735760780994,40.39015896044393,1011.5707894676386,212 - Marqués de Vadillo,Glorieta Marqués de Vadillo nº 9
11431653,Unión de Iglesias Cristianas Adventistas del 7º día Doctor Bellido 13,-3.667388786715533,40.384743037956014,1016.5204506389751,227 - Concordia,Calle Arroyo del Olivar nº 6
7064614,"Unión de Iglesias Cristianas Adventistas del 7º día. Alenza, 6",-3.700489559324882,40.443575443757055,244.1585762621428,130 - Santa Engracia 127,Calle Santa Engracia nº 127
11768905,Unión de Iglesias Cristianas Adventistas del 7º día. Austria 2,-3.6080217648238966,40.424745913913924,2851.6956860302657,215 - Gutierre de Cetina,Calle Gutierre de Cetina nº 77
7065947,Unión de Iglesias Cristianas Adventistas del 7º día. Calle Hermanos Gómez 32,-3.649838033163314,40.43025079764197,295.8697116268871,232 - José María Pereda,Calle José María de Pereda nº 1
11778015,Unión de Iglesias Cristianas Adventistas del 7º día. Calle Los Yébenes 255,-3.751562379802795,40.38947474678948,2930.645984670545,224 - Caramuel,Calle Caramuel nº 51
11744860,Unión de Iglesias Cristianas Adventistas del 7º día. Doctor Zofío 4,-3.738156333879843,40.3948228497844,1768.087468181289,223 - Ermita Santo,Paseo de la Ermita del Santo nº 48
11773010,Yoido Full Gospel Madrid Church,-3.709604761566092,40.46055142835657,445.1378977790818,239 - Francos Rodríguez,Calle Francos Rodríguez nº 62
